"Active Licenses","Permit Number","BAN","Permit Status","POE Class Code","License Type","DBA Name","Street Address","City","State","Point","analysis_neighborhood","supervisor_district","police_district","data_as_of","data_loaded_at"
"POE","003","455014","Active","P23","Place of Entertainment","111 Minna Gallery","111 MINNA ST","San Francisco","CA","POINT (-122.399379 37.787301)","Financial District/South Beach","6","SOUTHERN","2024/01/29 02:30:06 PM","2025/10/10 08:05:31 AM"
"EHP","009","0381286","Active",,,"SOMArts Cultural Center","934 BRANNAN ST","San Francisco","CA","POINT (-122.406588 37.771182)","South of Market","6","SOUTHERN","2024/01/29 02:30:06 PM","2025/10/10 08:05:31 AM"
"POE","015","0338153","Active","P23","Place of Entertainment","The Chieftain Irish Pub","198 5TH ST","San Francisco","CA","POINT (-122.4052605 37.781469)","South of Market","6","SOUTHERN","2024/01/29 02:30:06 PM","2025/10/10 08:05:31 AM"
"BP","021","0487508","Active",,,"O'Keefe's Bar","598 5TH AVE","San Francisco","CA","POINT (-122.4628155 37.777419)","Inner Richmond","1","RICHMOND","2024/01/29 02:30:06 PM","2025/10/10 08:05:31 AM"
"POE","023","0391602","Active","P23","Place of Entertainment","Bayview Opera House","4705 3RD ST","San Francisco","CA","POINT (-122.3901855 37.735011)","Bayview Hunters Point","10","BAYVIEW","2024/01/29 02:30:06 PM","2025/10/10 08:05:31 AM"
"MAD, BP","029","0947336","Active",,,"HAWAII WEST","720 VALLEJO ST","San Francisco","CA","POINT (-122.409127442 37.798568723)","Chinatown","3","CENTRAL","2024/01/29 02:30:06 PM","2025/10/10 08:05:31 AM"
"POE","036","484971","Active","P23","Place of Entertainment","Blondie's Bar","540 VALENCIA ST","San Francisco","CA","POINT (-122.422131 37.764207)","Mission","9","MISSION","2024/01/29 02:30:06 PM","2025/10/10 08:05:31 AM"
"BP","037","0380691","Active",,,"Latin American Club","3286 22ND ST","San Francisco","CA","POINT (-122.4207 37.755486)","Mission","9","MISSION","2024/01/29 02:30:06 PM","2025/10/10 08:05:31 AM"
"POE","048","1010655","Active","P23","Place of Entertainment","Punch Line Comedy Club","444 BATTERY ST","San Francisco","CA","POINT (-122.400372264 37.795348257)","Financial District/South Beach","3","CENTRAL","2024/01/29 02:30:06 PM","2025/10/10 08:05:31 AM"
"POE","051","0951023","Active","P23","Place of Entertainment","MARTUNI'S","4 VALENCIA ST","San Francisco","CA","POINT (-122.4226935 37.772307)","Mission","6","SOUTHERN","2024/01/29 02:30:06 PM","2025/10/10 08:05:31 AM"
"POE","052","0368985","Active","P23","Place of Entertainment","La Terra","511 HARRISON ST","San Francisco","CA","POINT (-122.3930205 37.785501)","Financial District/South Beach","6","SOUTHERN","2024/01/29 02:30:06 PM","2025/10/10 08:05:31 AM"
"MAD","066","0329482","Active",,,"ROUND TABLE PIZZA","2660 SAN BRUNO AVE","San Francisco","CA","POINT (-122.4041085 37.727946)","Portola","9","BAYVIEW","2024/01/29 02:30:06 PM","2025/10/10 08:05:31 AM"
"BP","068","0027509","Active",,,"Style Orama Barber Shop","1918 HAYES ST","San Francisco","CA","POINT (-122.4481725 37.773882)","Lone Mountain/USF","5","PARK","2024/01/29 02:30:06 PM","2025/10/10 08:05:31 AM"
"MAD, BP, EHP","070","0059036","Active",,,"Silvercrest Donuts","340 BAY SHORE BLVD","San Francisco","CA","POINT (-122.406093 37.742283)","Bernal Heights","9","BAYVIEW","2024/01/29 02:30:06 PM","2025/10/10 08:05:31 AM"
"MAD","074","0108345","Active",,,"TRAD'R SAM'S","6150 GEARY BLVD","San Francisco","CA","POINT (-122.485298775 37.780168476)","Outer Richmond","1","RICHMOND","2024/01/29 02:30:06 PM","2025/10/10 08:05:31 AM"
"POE","075","0014372","Active","P23","Place of Entertainment","ITALIAN AMERICAN SOCIAL CLUB","25 RUSSIA AVE","San Francisco","CA","POINT (-122.43654 37.721592)","Excelsior","11","INGLESIDE","2024/01/29 02:30:06 PM","2025/10/10 08:05:31 AM"
"BP","076","1060425","Active",,,"Blooms Saloon","1318 18TH ST","San Francisco","CA","POINT (-122.396031 37.762821)","Potrero Hill","10","BAYVIEW","2024/01/29 02:30:06 PM","2025/10/10 08:05:31 AM"
"MAD, BP","078","0121706","Active",,,"BILLIARD PALACADE, INC.","5179 MISSION ST","San Francisco","CA","POINT (-122.44113 37.715769)","Excelsior","11","INGLESIDE","2024/01/29 02:30:06 PM","2025/10/10 08:05:31 AM"
"POE, EHP","079","0914952","Active","P23","Place of Entertainment","The Mosser Hotel","54 4TH ST","San Francisco","CA","POINT (-122.405148 37.784871)","South of Market","6","SOUTHERN","2024/01/29 02:30:06 PM","2025/10/10 08:05:31 AM"
"POE","082","0032200","Active","P23","Place of Entertainment","Marine Memorial Auditorium","609 SUTTER ST","San Francisco","CA","POINT (-122.4104715 37.788687)","Nob Hill","3","CENTRAL","2024/01/29 02:30:06 PM","2025/10/10 08:05:31 AM"
"POE","084","0108494","Active","P23","Place of Entertainment","SF BAY CLUB","150 GREENWICH ST","San Francisco","CA","POINT (-122.402597951 37.803202474)","Financial District/South Beach","3","CENTRAL","2024/01/29 02:30:06 PM","2025/10/10 08:05:31 AM"
"POE","087","0143208","Active","P23","Place of Entertainment","HARRIS' RESTAURANT","2100 VAN NESS AVE","San Francisco","CA","POINT (-122.422887 37.795095)","Russian Hill","3","NORTHERN","2024/01/29 02:30:06 PM","2025/10/10 08:05:31 AM"
"POE","091","0948241","Active","P23","Place of Entertainment","ZUNI CAFE","1658 MARKET ST","San Francisco","CA","POINT (-122.4216225 37.773603)","Hayes Valley","6","NORTHERN","2024/11/19 01:52:41 PM","2025/10/10 08:05:31 AM"
"MAD, BP","094","0166490","Active",,,"PILSNER INN","225 CHURCH ST","San Francisco","CA","POINT (-122.428566 37.767123)","Castro/Upper Market","8","MISSION","2024/01/29 02:30:06 PM","2025/10/10 08:05:31 AM"
"POE, EHP","1001","1024920","Active","P23","Place of Entertainment","Danzhaus","1275 CONNECTICUT ST","San Francisco","CA","POINT (-122.39629085 37.750151212)","Bayview Hunters Point","10","BAYVIEW","2024/01/29 02:30:06 PM","2025/10/10 08:05:31 AM"
"MAD, BP","1002","0444512","Active",,,"Happy Lounge","3745 GEARY BLVD","San Francisco","CA","POINT (-122.459395095 37.781153493)","Inner Richmond","1","RICHMOND","2024/01/29 02:30:06 PM","2025/10/10 08:05:31 AM"
"POE","1004","0444190","Active","P23","Place of Entertainment","Blarney Stone","5625 GEARY BLVD","San Francisco","CA","POINT (-122.47968288 37.780221198)","Outer Richmond","1","RICHMOND","2024/01/29 02:30:06 PM","2025/10/10 08:05:31 AM"
"POE, EHP","1008","0446378","Active","P23","Place of Entertainment","The Public Works","161 ERIE ST","San Francisco","CA","POINT (-122.41939455 37.769067395)","Mission","9","MISSION","2024/01/29 02:30:06 PM","2025/10/10 08:05:31 AM"
"POE","1011","446024","Active","P23","Place of Entertainment","Monroe","473 BROADWAY","San Francisco","CA","POINT (-122.404959 37.797876)","North Beach","3","CENTRAL","2024/01/29 02:30:06 PM","2025/10/10 08:05:31 AM"
"POE","1023","0308039","Active","P23","Place of Entertainment","Comet Club","3111 FILLMORE ST","San Francisco","CA","POINT (-122.435756726 37.798187504)","Marina","2","NORTHERN","2024/01/29 02:30:06 PM","2025/10/10 08:05:31 AM"
"BP","103","0069119","Active",,,"Sutter Station Tavern","554 MARKET ST","San Francisco","CA","POINT (-122.4009855 37.789983)","Financial District/South Beach","3","CENTRAL","2024/01/29 02:30:06 PM","2025/10/10 08:05:31 AM"
"POE, BP","1034","462375","Active","P23","Place of Entertainment","Club 26 Mix","3024 MISSION ST","San Francisco","CA","POINT (-122.418477 37.748709)","Mission","9","MISSION","2024/01/29 02:30:06 PM","2025/10/10 08:05:31 AM"
"MAD, BP","1035","0454577","Active",,,"The Wreck Room","1390 CALIFORNIA ST","San Francisco","CA","POINT (-122.417190385 37.791039447)","Nob Hill","3","CENTRAL","2024/01/29 02:30:06 PM","2025/10/10 08:05:31 AM"
"POE","1038","0451098","Active","P23","Place of Entertainment","The Irish Times","500 SACRAMENTO ST","San Francisco","CA","POINT (-122.40144508 37.794001514)","Chinatown","3","CENTRAL","2024/01/29 02:30:06 PM","2025/10/10 08:05:31 AM"
"POE","1041","0457104","Active","P23","Place of Entertainment","CHAMBERS EAT + DRINK","601 EDDY ST","San Francisco","CA","POINT (-122.418072 37.782963)","Tenderloin","5","NORTHERN","2025/03/28 03:06:35 PM","2025/10/10 08:05:31 AM"
"POE, EHP","1044","0462018","Active","P23","Place of Entertainment","THE ENDUP","401 6TH ST","San Francisco","CA","POINT (-122.403717 37.777311)","South of Market","6","SOUTHERN","2025/08/05 10:26:10 AM","2025/10/10 08:05:31 AM"
"POE","1047","1010655","Active","P23","Place of Entertainment","Nob Hill Masonic Auditorium","1111 CALIFORNIA ST","San Francisco","CA","POINT (-122.412726152 37.79157099)","Nob Hill","3","CENTRAL","2024/01/29 02:30:06 PM","2025/10/10 08:05:31 AM"
"POE","1051","1038808","Active","P23","Place of Entertainment","L2 Karaoke","1504B FILLMORE ST","San Francisco","CA","POINT (-122.43271012 37.783425082)","Western Addition","5","NORTHERN","2024/01/29 02:30:06 PM","2025/10/10 08:05:31 AM"
"POE","1059","0465498","Active","P23","Place of Entertainment","Underground SF","424 HAIGHT ST","San Francisco","CA","POINT (-122.429376 37.772532)","Hayes Valley","5","NORTHERN","2024/01/29 02:30:06 PM","2025/10/10 08:05:31 AM"
"POE","1061","0463452","Active","P23","Place of Entertainment","Tupelo","1337 GRANT AVE","San Francisco","CA","POINT (-122.407515 37.799262)","North Beach","3","CENTRAL","2024/01/29 02:30:06 PM","2025/10/10 08:05:31 AM"
"POE","1062","479826","Active","P23","Place of Entertainment","Asiento","2730 21ST ST","San Francisco","CA","POINT (-122.409432 37.75779)","Mission","9","MISSION","2024/01/29 02:30:06 PM","2025/10/10 08:05:31 AM"
"POE, EHP","1063","461909","Active","P23","Place of Entertainment","Monarch","101 6TH ST","San Francisco","CA","POINT (-122.408325 37.780965)","South of Market","6","SOUTHERN","2024/01/29 02:30:06 PM","2025/10/10 08:05:31 AM"
"POE","1064","0462564","Active","P23","Place of Entertainment","Midnight Sun","4067 18TH ST","San Francisco","CA","POINT (-122.43429 37.760715)","Castro/Upper Market","8","MISSION","2024/01/29 02:30:06 PM","2025/10/10 08:05:31 AM"
"BP","1065","0148217","Active",,,"The Connection","5740 MISSION ST","San Francisco","CA","POINT (-122.4502245 37.709901)","Outer Mission","11","INGLESIDE","2024/01/29 02:30:06 PM","2025/10/10 08:05:31 AM"
"POE","1070","0397410","Active","P23","Place of Entertainment","IMPERIAL PALACE RESTAURANT","818 WASHINGTON ST","San Francisco","CA","POINT (-122.406894 37.795293)","Chinatown","3","CENTRAL","2025/03/28 03:06:35 PM","2025/10/10 08:05:31 AM"
"POE","1072","0451117","Active","P23","Place of Entertainment","Tempest Bar & Restaurant","431 NATOMA ST","San Francisco","CA","POINT (-122.406155163 37.781351896)","South of Market","6","SOUTHERN","2024/01/29 02:30:06 PM","2025/10/10 08:05:31 AM"
"POE, MAD, BP","1075","0460756","Active","P23","Place of Entertainment","Lucky Horseshoe","453 CORTLAND AVE","San Francisco","CA","POINT (-122.416945083 37.739132975)","Bernal Heights","9","INGLESIDE","2024/01/29 02:30:06 PM","2025/10/10 08:05:31 AM"
"EHP","1080","0429149","Active",,,"Jack in the Box","4649 GEARY BLVD","San Francisco","CA","POINT (-122.469093945 37.780709258)","Inner Richmond","1","RICHMOND","2024/01/29 02:30:06 PM","2025/10/10 08:05:31 AM"
"EHP","1081","0429149","Active",,,"Jack in the Box","400 GEARY ST","San Francisco","CA","POINT (-122.410004356 37.787168852)","Tenderloin","3","CENTRAL","2024/01/29 02:30:06 PM","2025/10/10 08:05:31 AM"
"EHP","1082","0429149","Active",,,"Jack in the Box","366 BAY SHORE BLVD","San Francisco","CA","POINT (-122.406234781 37.741925554)","Bernal Heights","9","BAYVIEW","2024/01/29 02:30:06 PM","2025/10/10 08:05:31 AM"
"LLP","1087","0398246","Active",,,"Amelie","1754 POLK ST","San Francisco","CA","POINT (-122.421128119 37.792862322)","Russian Hill","3","NORTHERN","2024/01/29 02:30:06 PM","2025/10/10 08:05:31 AM"
"POE","1088","0462654","Active","P23","Place of Entertainment","Providence","1351 POLK ST","San Francisco","CA","POINT (-122.420484007 37.789337718)","Nob Hill","3","NORTHERN","2024/01/29 02:30:06 PM","2025/10/10 08:05:31 AM"
"BP","1089","0459707","Active",,,"Rock Bar","80 29TH ST","San Francisco","CA","POINT (-122.422338 37.744074)","Bernal Heights","9","INGLESIDE","2024/01/29 02:30:06 PM","2025/10/10 08:05:31 AM"
"POE","1090","0461591","Active","P23","Place of Entertainment","Ithai","720 POST ST","San Francisco","CA","POINT (-122.4136755 37.787823)","Nob Hill","3","CENTRAL","2024/01/29 02:30:06 PM","2025/10/10 08:05:31 AM"
"POE","1097","0396689","Active","P23","Place of Entertainment","Roccapulco","3140 MISSION ST","San Francisco","CA","POINT (-122.419296 37.747242)","Bernal Heights","9","INGLESIDE","2024/01/29 02:30:06 PM","2025/10/10 08:05:31 AM"
"LLP","1099","0418485","Active",,,"Blush Wine Bar","476 CASTRO ST","San Francisco","CA","POINT (-122.435089797 37.761342901)","Castro/Upper Market","8","MISSION","2024/01/29 02:30:06 PM","2025/10/10 08:05:31 AM"
"POE","1103","0470546","Active","P23","Place of Entertainment","Club OMG!","43 6TH ST","San Francisco","CA","POINT (-122.4093195 37.781766)","South of Market","6","SOUTHERN","2024/01/29 02:30:06 PM","2025/10/10 08:05:31 AM"
"POE, EHP","1105","0484678","Active","P23","Place of Entertainment","Space 550","550 BARNEVELD AVE","San Francisco","CA","POINT (-122.404406597 37.740052124)","Bayview Hunters Point","10","BAYVIEW","2024/01/29 02:30:06 PM","2025/10/10 08:05:31 AM"
"POE","1107","0164948","Active","P23","Place of Entertainment","Aunt Charlie's Lounge","133 TURK ST","San Francisco","CA","POINT (-122.411348923 37.783115863)","Tenderloin","5","TENDERLOIN","2024/01/29 02:30:06 PM","2025/10/10 08:05:31 AM"
"LLP","1109","0474223","Active",,,"Fior d'Italia","2237 MASON ST","San Francisco","CA","POINT (-122.413357399 37.804171992)","North Beach","3","CENTRAL","2024/01/29 02:30:06 PM","2025/10/10 08:05:31 AM"
"LLP","1111","0427544","Active",,,"The Ramp","855 TERRY A FRANCOIS BLVD","San Francisco","CA","POINT (-122.387233594 37.764901245)","Potrero Hill","10","BAYVIEW","2024/01/29 02:30:06 PM","2025/10/10 08:05:31 AM"
"POE","1113","0450358","Active","P23","Place of Entertainment","Local Edition","691 MARKET ST","San Francisco","CA","POINT (-122.403245102 37.787708978)","Financial District/South Beach","6","SOUTHERN","2024/01/29 02:30:06 PM","2025/10/10 08:05:31 AM"
"BP","1114","0373908","Active",,,"Fillmore Billiard","1526 FILLMORE ST","San Francisco","CA","POINT (-122.432748811 37.783623584)","Western Addition","5","NORTHERN","2024/01/29 02:30:06 PM","2025/10/10 08:05:31 AM"
"EHP","1118","374810","Active",,,"King of Thai","184 OFARRELL ST","San Francisco","CA","POINT (-122.407741314 37.786483667)","Financial District/South Beach","3","TENDERLOIN","2024/01/29 02:30:06 PM","2025/10/10 08:05:31 AM"
"POE","1122","0457826","Active","P23","Place of Entertainment","The Edge","4149 18TH ST","San Francisco","CA","POINT (-122.435919 37.760643)","Castro/Upper Market","8","MISSION","2024/01/29 02:30:06 PM","2025/10/10 08:05:31 AM"
"POE","1129","0457525","Active","P23","Place of Entertainment","The Chapel","777 VALENCIA ST","San Francisco","CA","POINT (-122.421443036 37.760514078)","Mission","9","MISSION","2024/01/29 02:30:06 PM","2025/10/10 08:05:31 AM"
"POE","1130","0397919","Active","P23","Place of Entertainment","Sam's Cable Car Lounge","222 POWELL ST","San Francisco","CA","POINT (-122.408068998 37.786684302)","Financial District/South Beach","3","TENDERLOIN","2024/01/29 02:30:06 PM","2025/10/10 08:05:31 AM"
"POE","1133","0473327","Active","P23","Place of Entertainment","FAME Venue","443 BROADWAY","San Francisco","CA","POINT (-122.4045135 37.797894)","North Beach","3","CENTRAL","2024/01/29 02:30:06 PM","2025/10/10 08:05:31 AM"
"LLP","1138","0477643","Active",,,"Kendra Alexander Foundation","518 VALENCIA ST","San Francisco","CA","POINT (-122.421901053 37.764563296)","Mission","9","MISSION","2024/01/29 02:30:06 PM","2025/10/10 08:05:31 AM"
"EHP","1139","0314624","Active",,,"El Farolito","4817 MISSION ST","San Francisco","CA","POINT (-122.437294884 37.721303609)","Excelsior","11","INGLESIDE","2024/01/29 02:30:06 PM","2025/10/10 08:05:31 AM"
"LLP, MAD","1140","0945623","Active",,,"Golden Gate Grill","449 POWELL ST","San Francisco","CA","POINT (-122.408543838 37.78875146)","Nob Hill","3","CENTRAL","2024/01/29 02:30:06 PM","2025/10/10 08:05:31 AM"
"LLP","1142","0448813","Active",,,"The Sycamore","2140 MISSION ST","San Francisco","CA","POINT (-122.419502938 37.762835276)","Mission","9","MISSION","2024/01/29 02:30:06 PM","2025/10/10 08:05:31 AM"
"POE, EHP","1147","0489842","Active","P23","Place of Entertainment","Hawthorn","46 GEARY ST","San Francisco","CA","POINT (-122.404311 37.788129)","Financial District/South Beach","3","CENTRAL","2024/01/29 02:30:06 PM","2025/10/10 08:05:31 AM"
"POE","1150","0404254","Active","P23","Place of Entertainment","Festa","1581 WEBSTER ST","San Francisco","CA","POINT (-122.431462289 37.7851749)","Japantown","5","NORTHERN","2024/01/29 02:30:06 PM","2025/10/10 08:05:31 AM"
"POE","1151","0368251","Active","P23","Place of Entertainment","SF Jazz","201 FRANKLIN ST","San Francisco","CA","POINT (-122.421213843 37.776253043)","Hayes Valley","5","NORTHERN","2024/01/29 02:30:06 PM","2025/10/10 08:05:31 AM"
"EHP","1153","0310807","Active",,,"Taqueria Guadalajara","4798 MISSION ST","San Francisco","CA","POINT (-122.437477956 37.721267548)","Outer Mission","11","INGLESIDE","2024/01/29 02:30:06 PM","2025/10/10 08:05:31 AM"
"LLP","1155","0480589","Active",,,"Center for New Music San Francisco","55 TAYLOR ST","San Francisco","CA","POINT (-122.410692287 37.782613701)","Tenderloin","5","TENDERLOIN","2024/01/29 02:30:06 PM","2025/10/10 08:05:31 AM"
"LLP","1156","0464262","Active",,,"Original Joe's","601 UNION ST","San Francisco","CA","POINT (-122.409309653 37.800409415)","North Beach","3","CENTRAL","2024/01/29 02:30:06 PM","2025/10/10 08:05:31 AM"
"LLP","1163","1129505","Active",,,"Red Poppy Art House","2698 FOLSOM ST","San Francisco","CA","POINT (-122.414289592 37.754187645)","Mission","9","MISSION","2024/01/29 02:30:06 PM","2025/10/10 08:05:31 AM"
"POE","1166","1105855","Active","P23","Place of Entertainment","Pagoda","1704 POST ST","San Francisco","CA","POINT (-122.429967707 37.785578664)","Japantown","5","NORTHERN","2024/01/29 02:30:06 PM","2025/10/10 08:05:31 AM"
"POE","1168","0303017","Active","P23","Place of Entertainment","Brava Theater Center","2781 24TH ST","San Francisco","CA","POINT (-122.4077625 37.75266)","Mission","9","MISSION","2024/01/29 02:30:06 PM","2025/10/10 08:05:31 AM"
"POE","1170","0026377","Active","P23","Place of Entertainment","Slovenian Hall","2101 MARIPOSA ST","San Francisco","CA","POINT (-122.404493866 37.763354325)","Potrero Hill","10","BAYVIEW","2024/01/29 02:30:06 PM","2025/10/10 08:05:31 AM"
"LLP","1172","0460458","Active",,,"620 Jones","620 JONES ST","San Francisco","CA","POINT (-122.413205258 37.787055272)","Tenderloin","3","CENTRAL","2024/01/29 02:30:06 PM","2025/10/10 08:05:31 AM"
"POE","1174","476394","Active","P23","Place of Entertainment","SF Eagle Bar","398 12TH ST","San Francisco","CA","POINT (-122.4134325 37.769985)","Mission","6","SOUTHERN","2024/01/29 02:30:06 PM","2025/10/10 08:05:31 AM"
"POE, BP","1182","0477625","Active","P23","Place of Entertainment","Four Deuces","2319 TARAVAL ST","San Francisco","CA","POINT (-122.490974087 37.742352787)","Sunset/Parkside","4","TARAVAL","2024/01/29 02:30:06 PM","2025/10/10 08:05:31 AM"
"EHP","1183","0460685","Active",,,"Paris Pizza/Pizzaria","448 BROADWAY","San Francisco","CA","POINT (-122.404662 37.798434)","North Beach","3","CENTRAL","2024/01/29 02:30:06 PM","2025/10/10 08:05:31 AM"
"EHP","1185","0430716","Active",,,"Milan Pizza","606 GEARY ST","San Francisco","CA","POINT (-122.413380552 37.786735541)","Tenderloin","3","CENTRAL","2024/01/29 02:30:06 PM","2025/10/10 08:05:31 AM"
"POE","1187","0477405","Active","P23","Place of Entertainment","Beaux","2344 MARKET ST","San Francisco","CA","POINT (-122.434103549 37.763563222)","Castro/Upper Market","8","MISSION","2024/01/29 02:30:06 PM","2025/10/10 08:05:31 AM"
"EHP","1188","0168378","Active",,,"Hotel Nikko","222 MASON ST","San Francisco","CA","POINT (-122.4095272 37.785546317)","Tenderloin","5","TENDERLOIN","2024/01/29 02:30:06 PM","2025/10/10 08:05:31 AM"
"LLP","1189","0419277","Active",,,"Brenda's French Soul Food","652 POLK ST","San Francisco","CA","POINT (-122.419073478 37.782666468)","Tenderloin","5","NORTHERN","2024/01/29 02:30:06 PM","2025/10/10 08:05:31 AM"
"EHP","1190",,"Active",,,"Pizzelle di North Beach","314 COLUMBUS AVE","San Francisco","CA","POINT (-122.406858833 37.798025612)","North Beach","3","CENTRAL","2024/01/29 02:30:06 PM","2025/10/10 08:05:31 AM"
"EHP","1193","0945623","Active",,,"Lori's Diner","500 SUTTER ST","San Francisco","CA","POINT (-122.408883 37.789308)","Nob Hill","3","CENTRAL","2024/01/29 02:30:06 PM","2025/10/10 08:05:31 AM"
"POE","1195","0464423","Active","P23","Place of Entertainment","The Battery","717 BATTERY ST","San Francisco","CA","POINT (-122.400954257 37.797866851)","Financial District/South Beach","3","CENTRAL","2024/01/29 02:30:06 PM","2025/10/10 08:05:31 AM"
"POE, EHP","1196","0484679","Active","P23","Place of Entertainment","Luxx Lounge","60 6TH ST","San Francisco","CA","POINT (-122.4095985 37.781361)","South of Market","6","SOUTHERN","2024/01/29 02:30:06 PM","2025/10/10 08:05:31 AM"
"POE","1197","1104709","Active","P23","Place of Entertainment","Audio/Bergerac","316 11TH ST","San Francisco","CA","POINT (-122.413806 37.771371)","Mission","6","SOUTHERN","2024/01/29 02:30:06 PM","2025/10/10 08:05:31 AM"
"LLP","1199","0369242","Active",,,"Tio Chilos Grill","2872 24TH ST","San Francisco","CA","POINT (-122.409783 37.752993)","Mission","9","MISSION","2024/01/29 02:30:06 PM","2025/10/10 08:05:31 AM"
"POE, EHP","120","0926478","Active","P23","Place of Entertainment","1015 Folsom","1015 FOLSOM ST","San Francisco","CA","POINT (-122.4056925 37.778049)","South of Market","6","SOUTHERN","2024/01/29 02:30:06 PM","2025/10/10 08:05:31 AM"
"POE","1200","0484006","Active","P23","Place of Entertainment","Beluga","5323 GEARY BLVD","San Francisco","CA","POINT (-122.476462249 37.780374478)","Outer Richmond","1","RICHMOND","2024/01/29 02:30:06 PM","2025/10/10 08:05:31 AM"
"POE","1202","0465215","Active","P23","Place of Entertainment","Akiba","3141 CLEMENT ST","San Francisco","CA","POINT (-122.492845327 37.781634983)","Outer Richmond","1","RICHMOND","2024/01/29 02:30:06 PM","2025/10/10 08:05:31 AM"
"LLP","1212","0456266","Active",,,"Etcetera Wine Bar","795 VALENCIA ST","San Francisco","CA","POINT (-122.42141808 37.760252775)","Mission","9","MISSION","2024/01/29 02:30:06 PM","2025/10/10 08:05:31 AM"
"MAD","1225","0398671","Active",,,"Free Gold Watch","1767 WALLER ST","San Francisco","CA","POINT (-122.452713 37.768212)","Haight Ashbury","8","PARK","2024/01/29 02:30:06 PM","2025/10/10 08:05:31 AM"
"POE, EHP","1228","0488875","Active","P23","Place of Entertainment","Origin Restaurant & Lounge","1538 FILLMORE ST","San Francisco","CA","POINT (-122.432769916 37.783731857)","Western Addition","5","NORTHERN","2024/01/29 02:30:06 PM","2025/10/10 08:05:31 AM"
"POE","1230","0486121","Active","P23","Place of Entertainment","SCHROEDER'S","240 FRONT ST","San Francisco","CA","POINT (-122.3985555 37.793961)","Financial District/South Beach","3","CENTRAL","2024/11/20 03:53:23 PM","2025/10/10 08:05:31 AM"
"POE, MAD, BP","1232","0485629","Active","P23","Place of Entertainment","Buzzworks","365 11TH ST","San Francisco","CA","POINT (-122.4128925 37.771299)","South of Market","6","SOUTHERN","2024/01/29 02:30:06 PM","2025/10/10 08:05:31 AM"
"LLP","1233","0048140","Active",,,"Specs 12 Adler Museum","12 SAROYAN PL","San Francisco","CA","POINT (-122.406097685 37.797533474)","North Beach","3","CENTRAL","2024/01/29 02:30:06 PM","2025/10/10 08:05:31 AM"
"LLP","1236","0465668","Active",,,"Mission Bowling Club","3176 17TH ST","San Francisco","CA","POINT (-122.41674 37.763937)","Mission","9","MISSION","2024/01/29 02:30:06 PM","2025/10/10 08:05:31 AM"
"POE, EHP","1238","0397646","Active","P23","Place of Entertainment","Cocobang","550 TAYLOR ST","San Francisco","CA","POINT (-122.411600643 37.787470654)","Tenderloin","3","CENTRAL","2024/01/29 02:30:06 PM","2025/10/10 08:05:31 AM"
"POE","1243","1030172","Active","P23","Place of Entertainment","Amados","998 VALENCIA ST","San Francisco","CA","POINT (-122.421174593 37.756995645)","Mission","9","MISSION","2024/01/29 02:30:06 PM","2025/10/10 08:05:31 AM"
"POE","1249","1001283","Active","P23","Place of Entertainment","The Village","969 MARKET ST","San Francisco","CA","POINT (-122.40953058 37.782750773)","South of Market","6","SOUTHERN","2024/01/29 02:30:06 PM","2025/10/10 08:05:31 AM"
"POE","1251","0485119","Active","P23","Place of Entertainment","Bartlett Hall","240 OFARRELL ST","San Francisco","CA","POINT (-122.408815838 37.78634734)","Tenderloin","3","TENDERLOIN","2024/01/29 02:30:06 PM","2025/10/10 08:05:31 AM"
"MAD","1256","0397243","Active",,,"Gestalt","3159 16TH ST","San Francisco","CA","POINT (-122.4233145 37.764576)","Mission","9","MISSION","2024/01/29 02:30:06 PM","2025/10/10 08:05:31 AM"
"POE","126",,"Active","P23","Place of Entertainment","SF MUSEUM OF MODERN ART","151 3RD ST","San Francisco","CA","POINT (-122.400765 37.785924)","Financial District/South Beach","6","SOUTHERN","2024/01/29 02:30:06 PM","2025/10/10 08:05:31 AM"
"LLP","1262","0470426","Active",,,"John's Grill","63 ELLIS ST","San Francisco","CA","POINT (-122.4072 37.785393)","Financial District/South Beach","3","TENDERLOIN","2024/01/29 02:30:06 PM","2025/10/10 08:05:31 AM"
"POE","1263","1067482","Active","P23","Place of Entertainment","Swedish American Hall/ Cafe du Nord","2174 MARKET ST","San Francisco","CA","POINT (-122.430489325 37.766432477)","Castro/Upper Market","8","MISSION","2024/01/29 02:30:06 PM","2025/10/10 08:05:31 AM"
"POE","1268","0484015","Active","P23","Place of Entertainment","Pop's Clubhouse","2800 24TH ST","San Francisco","CA","POINT (-122.4084105 37.752975)","Mission","9","MISSION","2024/01/29 02:30:06 PM","2025/10/10 08:05:31 AM"
"POE","1270","1001929","Active","P23","Place of Entertainment","Jaxson","3231 FILLMORE ST","San Francisco","CA","POINT (-122.436024667 37.799508551)","Marina","2","NORTHERN","2024/01/29 02:30:06 PM","2025/10/10 08:05:31 AM"
"LLP","1272","0367539","Active",,,"Oye Managua","3385 MISSION ST","San Francisco","CA","POINT (-122.421863275 37.742505764)","Bernal Heights","9","INGLESIDE","2024/01/29 02:30:06 PM","2025/10/10 08:05:31 AM"
"BP","1274","0488949","Active",,,"Harper & Rye","1695 POLK ST","San Francisco","CA","POINT (-122.421074218 37.792264167)","Nob Hill","3","NORTHERN","2024/01/29 02:30:06 PM","2025/10/10 08:05:31 AM"
"MAD","1275","0487330","Active",,,"The Detour","2200 MARKET ST","San Francisco","CA","POINT (-122.431153596 37.765856284)","Castro/Upper Market","8","MISSION","2024/01/29 02:30:06 PM","2025/10/10 08:05:31 AM"
"LLP","1279","0469138","Active",,,"Proxy","432 OCTAVIA ST","San Francisco","CA","POINT (-122.424246 37.776402)","Hayes Valley","5","NORTHERN","2024/01/29 02:30:06 PM","2025/10/10 08:05:31 AM"
"POE, EHP","1281","1004380","Active","P23","Place of Entertainment","Oasis","298 11TH ST","San Francisco","CA","POINT (-122.4144 37.771893)","Mission","6","SOUTHERN","2024/01/29 02:30:06 PM","2025/10/10 08:05:31 AM"
"POE","1288","0373771","Active","P23","Place of Entertainment","Mochica","1469 18TH ST","San Francisco","CA","POINT (-122.397174 37.762353)","Potrero Hill","10","BAYVIEW","2024/01/29 02:30:06 PM","2025/10/10 08:05:31 AM"
"LLP","1289","0955047","Active",,,"Whole Foods","1150 OCEAN AVE","San Francisco","CA","POINT (-122.45463 37.723779)","West of Twin Peaks","7","INGLESIDE","2024/01/29 02:30:06 PM","2025/10/10 08:05:31 AM"
"POE, BP","129","0164019","Active","P23","Place of Entertainment","Eve Nightclub","1535 FOLSOM ST","San Francisco","CA","POINT (-122.414328 37.771407)","Mission","6","SOUTHERN","2024/01/29 02:30:06 PM","2025/10/10 08:05:31 AM"
"BP","1290","0478170","Active",,,"The Mad Dog In the Fog","530 HAIGHT ST","San Francisco","CA","POINT (-122.4310185 37.772154)","Hayes Valley","5","NORTHERN","2024/01/29 02:30:06 PM","2025/10/10 08:05:31 AM"
"EHP","1292","0911744","Active",,,"Starbucks Store#6605","2727 MARIPOSA ST","San Francisco","CA","POINT (-122.41056139 37.762989917)","Mission","9","MISSION","2024/01/29 02:30:06 PM","2025/10/10 08:05:31 AM"
"POE","1293","1009292","Active","P23","Place of Entertainment","Fish & Farm","424 CLAY ST","San Francisco","CA","POINT (-122.40072 37.795095)","Chinatown","3","CENTRAL","2024/01/29 02:30:06 PM","2025/10/10 08:05:31 AM"
"MAD","1295","0305495","Active",,,"Li Po Cocktail Lounge","916 GRANT AVE","San Francisco","CA","POINT (-122.40649583 37.795357022)","Chinatown","3","CENTRAL","2024/01/29 02:30:06 PM","2025/10/10 08:05:31 AM"
"BP","1296","0320414","Active",,,"The Outsider","894 GEARY ST","San Francisco","CA","POINT (-122.417938634 37.786152098)","Tenderloin","3","CENTRAL","2024/01/29 02:30:06 PM","2025/10/10 08:05:31 AM"
"EHP","1297","0102058","Active",,,"Yuet Lee","1300 STOCKTON ST","San Francisco","CA","POINT (-122.408615041 37.797726041)","Chinatown","3","CENTRAL","2024/01/29 02:30:06 PM","2025/10/10 08:05:31 AM"
"POE","1298","0185512","Active","P23","Place of Entertainment","VERDI CLUB","2424 MARIPOSA ST","San Francisco","CA","POINT (-122.4079425 37.763397)","Mission","9","MISSION","2025/03/28 03:06:35 PM","2025/10/10 08:05:31 AM"
"POE","1299","1063657","Active","P23","Place of Entertainment","UNITED IRISH CULTURAL CENTER","2700 45TH AVE","San Francisco","CA","POINT (-122.502807 37.735974)","Sunset/Parkside","4","TARAVAL","2024/01/29 02:30:06 PM","2025/10/10 08:05:31 AM"
"POE","1300","0395887","Active","P23","Place of Entertainment","Palace Hotel","2 NEW MONTGOMERY ST","San Francisco","CA","POINT (-122.402023735 37.788639884)","Financial District/South Beach","6","SOUTHERN","2024/01/29 02:30:06 PM","2025/10/10 08:05:31 AM"
"POE","1301","0451379","Active","P23","Place of Entertainment","Sailor's Union of The Pacific","450 HARRISON ST","San Francisco","CA","POINT (-122.392539089 37.786432149)","Financial District/South Beach","6","SOUTHERN","2024/01/29 02:30:06 PM","2025/10/10 08:05:31 AM"
"LLP","1302","0171173","Active",,,"Ryoko's Japanese Restaurant","619 TAYLOR ST","San Francisco","CA","POINT (-122.411785107 37.788081145)","Nob Hill","3","CENTRAL","2024/01/29 02:30:06 PM","2025/10/10 08:05:31 AM"
"LLP","1303","0013301","Active",,,"Chancellor Hotel","433 POWELL ST","San Francisco","CA","POINT (-122.408518294 37.788629087)","Nob Hill","3","CENTRAL","2024/01/29 02:30:06 PM","2025/10/10 08:05:31 AM"
"LLP","1304","0345442","Active",,,"Players Sports Bar & Arcade","39 PIER","San Francisco","CA","POINT (-122.396222304 37.795040654)","Financial District/South Beach","3","CENTRAL","2024/01/29 02:30:06 PM","2025/10/10 08:05:31 AM"
"POE","1305","0358273","Active","P23","Place of Entertainment","Devil's Acre","256 COLUMBUS AVE","San Francisco","CA","POINT (-122.406347684 37.797670584)","North Beach","3","CENTRAL","2024/01/29 02:30:06 PM","2025/10/10 08:05:31 AM"
"POE","1306","1010655","Active","P23","Place of Entertainment","The Fillmore","1805 GEARY BLVD","San Francisco","CA","POINT (-122.431395537 37.78436395)","Western Addition","5","NORTHERN","2024/01/29 02:30:06 PM","2025/10/10 08:05:31 AM"
"LLP","1307","0480178","Active",,,"Applebee's","2770 TAYLOR ST","San Francisco","CA","POINT (-122.4154755 37.807974)","North Beach","3","CENTRAL","2024/01/29 02:30:06 PM","2025/10/10 08:05:31 AM"
"EHP","1309","0430380","Active",,,"Orphan Andy's","3991 17TH ST","San Francisco","CA","POINT (-122.4348795 37.762281)","Castro/Upper Market","8","MISSION","2024/01/29 02:30:06 PM","2025/10/10 08:05:31 AM"
"POE","1312","0370778","Active","P23","Place of Entertainment","A.C.T. Strand","1127 MARKET ST","San Francisco","CA","POINT (-122.4129015 37.779642)","South of Market","6","SOUTHERN","2024/01/29 02:30:06 PM","2025/10/10 08:05:31 AM"
"POE","1313","0442473","Active","P23","Place of Entertainment","Gray Area","2665 MISSION ST","San Francisco","CA","POINT (-122.418306 37.754406)","Mission","9","MISSION","2024/01/29 02:30:06 PM","2025/10/10 08:05:31 AM"
"LLP","1315","0171578","Active",,,"Bix","56 GOLD ST","San Francisco","CA","POINT (-122.4029205 37.796868)","Chinatown","3","CENTRAL","2024/01/29 02:30:06 PM","2025/10/10 08:05:31 AM"
"LLP","1316","0454625","Active",,,"The Royal Cuckoo","3202 MISSION ST","San Francisco","CA","POINT (-122.42013186 37.745304929)","Bernal Heights","9","INGLESIDE","2024/01/29 02:30:06 PM","2025/10/10 08:05:31 AM"
"POE","1321","1012323","Active","P23","Place of Entertainment","Mr. Tipple's/Cadence","39 FELL ST","San Francisco","CA","POINT (-122.4185895 37.776177)","Tenderloin","6","NORTHERN","2024/01/29 02:30:06 PM","2025/10/10 08:05:31 AM"
"LLP","1322","1003427","Active",,,"Little Boxes Theater","1661 TENNESSEE ST","San Francisco","CA","POINT (-122.388535471 37.750736659)","Bayview Hunters Point","10","BAYVIEW","2024/01/29 02:30:06 PM","2025/10/10 08:05:31 AM"
"BP","1324","1003489","Active",,,"Grandma's Saloon","1016 TARAVAL ST","San Francisco","CA","POINT (-122.477032465 37.743026255)","Sunset/Parkside","4","TARAVAL","2024/01/29 02:30:06 PM","2025/10/10 08:05:31 AM"
"LLP","1325","0381160","Active",,,"MARS BAR & RESTAURANT","798 BRANNAN ST","San Francisco","CA","POINT (-122.4031725 37.773261)","South of Market","6","SOUTHERN","2025/03/28 03:06:35 PM","2025/10/10 08:05:31 AM"
"POE","1326","1005242","Active","P23","Place of Entertainment","The Lab","2948 16TH ST","San Francisco","CA","POINT (-122.418459 37.765296)","Mission","9","MISSION","2024/01/29 02:30:06 PM","2025/10/10 08:05:31 AM"
"LLP","1328","0490109","Active",,,"Puccini& Pinetti","129 ELLIS ST","San Francisco","CA","POINT (-122.40837 37.785195)","Tenderloin","3","TENDERLOIN","2024/01/29 02:30:06 PM","2025/10/10 08:05:31 AM"
"MAD, BP","1329","0467319","Active",,,"FRIENDS BAR","558 MONTEREY BLVD","San Francisco","CA","POINT (-122.447972751 37.73161798)","West of Twin Peaks","7","INGLESIDE","2024/01/29 02:30:06 PM","2025/10/10 08:05:31 AM"
"LLP","1330","0308767","Active",,,"Laureate","488 PRESIDIO AVE","San Francisco","CA","POINT (-122.446803675 37.787434493)","Presidio Heights","2","RICHMOND","2024/01/29 02:30:06 PM","2025/10/10 08:05:31 AM"
"LLP","1331","0326798","Active",,,"Bird & Beckett Books and Records","653 CHENERY ST","San Francisco","CA","POINT (-122.43295279 37.734504172)","Glen Park","8","INGLESIDE","2024/01/29 02:30:06 PM","2025/10/10 08:05:31 AM"
"LLP","1333","0352860","Active",,,"Zingari Ristorante","501 POST ST","San Francisco","CA","POINT (-122.410395 37.787913)","Tenderloin","3","CENTRAL","2024/01/29 02:30:06 PM","2025/10/10 08:05:31 AM"
"BP","1334","0484945","Active",,,"The Willows","1582 FOLSOM ST","San Francisco","CA","POINT (-122.414859343 37.771111148)","Mission","6","SOUTHERN","2024/01/29 02:30:06 PM","2025/10/10 08:05:31 AM"
"EHP","1336","1017514","Active",,,"Grubstake Diner","1525 PINE ST","San Francisco","CA","POINT (-122.4208395 37.789326)","Nob Hill","3","NORTHERN","2024/01/29 02:30:06 PM","2025/10/10 08:05:31 AM"
"POE","1337","0427023","Active","P23","Place of Entertainment","Press Club","20 YERBA BUENA LN","San Francisco","CA","POINT (-122.4043695 37.785924)","Financial District/South Beach","6","SOUTHERN","2024/01/29 02:30:06 PM","2025/10/10 08:05:31 AM"
"LLP","1339","0463517","Active",,,"Azucar Lounge","299 9TH ST","San Francisco","CA","POINT (-122.411682 37.774062)","South of Market","6","SOUTHERN","2024/01/29 02:30:06 PM","2025/10/10 08:05:31 AM"
"MAD","1340",,"Active",,,"The Dubliner","3838 24TH ST","San Francisco","CA","POINT (-122.428341 37.751841)","Noe Valley","8","MISSION","2024/01/29 02:30:06 PM","2025/10/10 08:05:31 AM"
"LLP","1342","0458413","Active",,,"Tenderloin Museum","398 EDDY ST","San Francisco","CA","POINT (-122.4139545 37.784061)","Tenderloin","5","TENDERLOIN","2024/01/29 02:30:06 PM","2025/10/10 08:05:31 AM"
"POE","1343","1004666","Active","P23","Place of Entertainment","The Pearl","601 19TH ST","San Francisco","CA","POINT (-122.3889795 37.761525)","Potrero Hill","10","BAYVIEW","2024/01/29 02:30:06 PM","2025/10/10 08:05:31 AM"
"POE","1344","1026767","Active","P23","Place of Entertainment","The Midway","900 MARIN ST","San Francisco","CA","POINT (-122.385681 37.749285)","Bayview Hunters Point","10","BAYVIEW","2024/01/29 02:30:06 PM","2025/10/10 08:05:31 AM"
"EHP","1345","1068438","Active",,,"Sam Wo Restaurant & Bakery","713 CLAY ST","San Francisco","CA","POINT (-122.4051255 37.794258)","Chinatown","3","CENTRAL","2024/01/29 02:30:06 PM","2025/10/10 08:05:31 AM"
"LLP","1346","0446965","Active",,,"Old Skool Café","1429 MENDELL ST","San Francisco","CA","POINT (-122.390415 37.73421)","Bayview Hunters Point","10","BAYVIEW","2024/01/29 02:30:06 PM","2025/10/10 08:05:31 AM"
"LLP","1347","1016804","Active",,,"Pa'ina Restaurant and Lounge","1865 POST ST","San Francisco","CA","POINT (-122.4323055 37.784925)","Japantown","5","NORTHERN","2024/01/29 02:30:06 PM","2025/10/10 08:05:31 AM"
"POE","1352","481151","Active","P23","Place of Entertainment","Chase Center","1 WARRIORS WAY","San Francisco","CA","POINT (-122.3875755 37.768005)","Mission Bay","6","BAYVIEW","2024/01/29 02:30:06 PM","2025/10/10 08:05:31 AM"
"POE","1353","1018226","Active","P23","Place of Entertainment","Tunnel Top Bar","601 BUSH ST","San Francisco","CA","POINT (-122.4073125 37.790235)","Financial District/South Beach","3","CENTRAL","2024/01/29 02:30:06 PM","2025/10/10 08:05:31 AM"
"EHP","1355","0396689","Active",,,"Roccapulco","3140 MISSION ST","San Francisco","CA","POINT (-122.419296 37.747242)","Bernal Heights","9","INGLESIDE","2024/01/29 02:30:06 PM","2025/10/10 08:05:31 AM"
"POE","1358","1023620","Active","P23","Place of Entertainment","Connecticut Yankee","100 CONNECTICUT ST","San Francisco","CA","POINT (-122.3978715 37.764873)","Potrero Hill","10","BAYVIEW","2024/01/29 02:30:06 PM","2025/10/10 08:05:31 AM"
"LLP","1362","1023445","Active",,,"Atwater Tavern","295 TERRY A FRANCOIS BLVD","San Francisco","CA","POINT (-122.387247 37.774341)","Mission Bay","6","BAYVIEW","2024/01/29 02:30:06 PM","2025/10/10 08:05:31 AM"
"MAD, BP","1366","1028670","Active",,,"Evil Eye","2937 MISSION ST","San Francisco","CA","POINT (-122.417901 37.750041)","Mission","9","MISSION","2024/01/29 02:30:06 PM","2025/10/10 08:05:31 AM"
"POE","1369","0423020","Active","P23","Place of Entertainment","Boxcar Theatre","644 BROADWAY","San Francisco","CA","POINT (-122.407765016 37.797767339)","Chinatown","3","CENTRAL","2024/01/29 02:30:06 PM","2025/10/10 08:05:31 AM"
"POE","137","0358996","Active","P23","Place of Entertainment","SF LSBN GAY BSXL TRNGDR COM CT","1800 MARKET ST","San Francisco","CA","POINT (-122.423922 37.771749)","Hayes Valley","8","NORTHERN","2024/01/29 02:30:06 PM","2025/10/10 08:05:31 AM"
"POE, EHP","1371","1031804","Active","P23","Place of Entertainment","The Great Northern","119 UTAH ST","San Francisco","CA","POINT (-122.406751219 37.768131221)","Mission","6","MISSION","2024/01/29 02:30:06 PM","2025/10/10 08:05:31 AM"
"POE, MAD, BP","1372","1070390","Active","P23","Place of Entertainment","Emporium SF","616 DIVISADERO ST","San Francisco","CA","POINT (-122.437458 37.775331)","Hayes Valley","5","PARK","2024/01/29 02:30:06 PM","2025/10/10 08:05:31 AM"
"POE","1373","0469687","Active","P23","Place of Entertainment","The Riptide","3639 TARAVAL ST","San Francisco","CA","POINT (-122.5053405 37.741581)","Sunset/Parkside","4","TARAVAL","2024/01/29 02:30:06 PM","2025/10/10 08:05:31 AM"
"LLP","1374","1021100","Active",,,"Scopo Divino","2800 CALIFORNIA ST","San Francisco","CA","POINT (-122.4408015 37.7883)","Pacific Heights","2","RICHMOND","2024/01/29 02:30:06 PM","2025/10/10 08:05:31 AM"
"POE, EHP","1377","1042405","Active","P23","Place of Entertainment","Halcyon","314 11TH ST","San Francisco","CA","POINT (-122.4139185 37.771452)","Mission","6","SOUTHERN","2024/01/29 02:30:06 PM","2025/10/10 08:05:31 AM"
"POE","1378","1029468","Active","P23","Place of Entertainment","Spin San Francisco","690 FOLSOM ST","San Francisco","CA","POINT (-122.3989785 37.784187)","Financial District/South Beach","6","SOUTHERN","2024/01/29 02:30:06 PM","2025/10/10 08:05:31 AM"
"MAD","138","0947644","Active",,,"Chelsea Place","641 BUSH ST","San Francisco","CA","POINT (-122.407677 37.790199)","Financial District/South Beach","3","CENTRAL","2024/01/29 02:30:06 PM","2025/10/10 08:05:31 AM"
"BP","1380","0482536","Active",,,"Richmond Republic","642 CLEMENT ST","San Francisco","CA","POINT (-122.46624 37.783134)","Inner Richmond","1","RICHMOND","2024/01/29 02:30:06 PM","2025/10/10 08:05:31 AM"
"LLP","1381","1022008","Active",,,"Ocean Ale House","1314 OCEAN AVE","San Francisco","CA","POINT (-122.456736 37.724265)","West of Twin Peaks","7","INGLESIDE","2024/01/29 02:30:06 PM","2025/10/10 08:05:31 AM"
"POE","1385","1032245","Active","P23","Place of Entertainment","Black Cat","400 EDDY ST","San Francisco","CA","POINT (-122.4144045 37.783827)","Tenderloin","5","TENDERLOIN","2024/01/29 02:30:06 PM","2025/10/10 08:05:31 AM"
"LLP","1387","1009067","Active",,,"Harmonic Brewing","1050 26TH ST","San Francisco","CA","POINT (-122.390082 37.751625)","Bayview Hunters Point","10","BAYVIEW","2024/01/29 02:30:06 PM","2025/10/10 08:05:31 AM"
"LLP","1388","1007479","Active",,,"Belle Cora","565 GREEN ST","San Francisco","CA","POINT (-122.408397 37.79946)","North Beach","3","CENTRAL","2024/01/29 02:30:06 PM","2025/10/10 08:05:31 AM"
"LLP","1389","1016340","Active",,,"The Sea Star","2289 3RD ST","San Francisco","CA","POINT (-122.3882415 37.760688)","Potrero Hill","10","BAYVIEW","2024/01/29 02:30:06 PM","2025/10/10 08:05:31 AM"
"POE, BP","139","0336810","Active","P23","Place of Entertainment","The Pig and the Whistle","2801 GEARY BLVD","San Francisco","CA","POINT (-122.449166096 37.782139365)","Lone Mountain/USF","2","RICHMOND","2024/01/29 02:30:06 PM","2025/10/10 08:05:31 AM"
"POE, BP","1393","1063156","Active","P23","Place of Entertainment","Lone Star Saloon","1354 HARRISON ST","San Francisco","CA","POINT (-122.4109395 37.772208)","South of Market","6","SOUTHERN","2024/01/29 02:30:06 PM","2025/10/10 08:05:31 AM"
"EHP","1396","1104709","Active",,,"Audio/Bergerac","316 11TH ST","San Francisco","CA","POINT (-122.413806 37.771371)","Mission","6","SOUTHERN","2024/01/29 02:30:06 PM","2025/10/10 08:05:31 AM"
"LLP","1397","0385922","Active",,,"AT&T 1 Powell","1 POWELL ST","San Francisco","CA","POINT (-122.407763741 37.784784897)","Tenderloin","3","TENDERLOIN","2024/01/29 02:30:06 PM","2025/10/10 08:05:31 AM"
"LLP","1398","1012548","Active",,,"FINNEGAN'S WAKE","937 COLE ST","San Francisco","CA","POINT (-122.450166 37.765305)","Haight Ashbury","8","PARK","2025/03/28 03:06:35 PM","2025/10/10 08:05:31 AM"
"LLP","1399","1046054","Active",,,"Cha Cha Cha on Mission","2327 MISSION ST","San Francisco","CA","POINT (-122.418819 37.759788)","Mission","9","MISSION","2024/01/29 02:30:06 PM","2025/10/10 08:05:31 AM"
"POE, EHP","140","0305542","Active","P23","Place of Entertainment","Boom Boom Room","1601 FILLMORE ST","San Francisco","CA","POINT (-122.4334305 37.784565)","Japantown","5","NORTHERN","2024/01/29 02:30:06 PM","2025/10/10 08:05:31 AM"
"LLP","1401","0454765","Active",,,"Rinconcito Nicaraguense","2943 MISSION ST","San Francisco","CA","POINT (-122.417892 37.749969)","Mission","9","MISSION","2024/01/29 02:30:06 PM","2025/10/10 08:05:31 AM"
"POE, EHP","1402","1067294","Active","P23","Place of Entertainment","Toy Soldier","52 BELDEN PL","San Francisco","CA","POINT (-122.403673037 37.791420001)","Financial District/South Beach","3","CENTRAL","2024/01/29 02:30:06 PM","2025/10/10 08:05:31 AM"
"POE","1404","0348637","Active","P23","Place of Entertainment","HARRY'S BAR","2020 FILLMORE ST","San Francisco","CA","POINT (-122.433444 37.788354)","Pacific Heights","2","NORTHERN","2025/08/08 09:39:36 AM","2025/10/10 08:05:31 AM"
"EHP","1405","1029744","Active",,,"The Halal Guys","340 OFARRELL ST","San Francisco","CA","POINT (-122.410341 37.786428)","Tenderloin","3","TENDERLOIN","2024/01/29 02:30:06 PM","2025/10/10 08:05:31 AM"
"LLP","1407","0111067","Active",,,"Bosco","888 BRANNAN ST","San Francisco","CA","POINT (-122.4052065 37.772019)","South of Market","6","SOUTHERN","2025/01/07 09:47:47 AM","2025/10/10 08:05:31 AM"
"LLP","1410","0426415","Active",,,"Google Inc.","188 THE EMBARCADERO","San Francisco","CA","POINT (-122.391693 37.792584)","Financial District/South Beach","6","SOUTHERN","2024/01/29 02:30:06 PM","2025/10/10 08:05:31 AM"
"POE","1411","1021340","Active","P23","Place of Entertainment","Hermitage Banquet Hall","5641 GEARY BLVD","San Francisco","CA","POINT (-122.479988002 37.780026019)","Outer Richmond","1","RICHMOND","2024/01/29 02:30:06 PM","2025/10/10 08:05:31 AM"
"POE","1412","0190628","Active","P23","Place of Entertainment","Hamburger Mary's Patio Café","531 CASTRO ST","San Francisco","CA","POINT (-122.4348165 37.760364)","Castro/Upper Market","8","MISSION","2024/01/29 02:30:06 PM","2025/10/10 08:05:31 AM"
"LLP","1414","1009079","Active",,,"Noise","3427 BALBOA ST","San Francisco","CA","POINT (-122.49558 37.775691)","Outer Richmond","1","RICHMOND","2024/01/29 02:30:06 PM","2025/10/10 08:05:31 AM"
"POE","1417","1071425","Active","P23","Place of Entertainment","The Rumpus Room","10 6TH ST","San Francisco","CA","POINT (-122.4101925 37.781874)","South of Market","6","SOUTHERN","2024/01/29 02:30:06 PM","2025/10/10 08:05:31 AM"
"LLP","1419","1039310","Active",,,"Limoncello (previously Zita)","2862 24TH ST","San Francisco","CA","POINT (-122.409612 37.753002)","Mission","9","MISSION","2024/01/29 02:30:06 PM","2025/10/10 08:05:31 AM"
"LLP","1421","1060205","Active",,,"Endgames Improv","2989 MISSION ST","San Francisco","CA","POINT (-122.4178425 37.74942)","Mission","9","MISSION","2024/01/29 02:30:06 PM","2025/10/10 08:05:31 AM"
"LLP","1422","1015269","Active",,,"District Six","428 11TH ST","San Francisco","CA","POINT (-122.4119115 37.769778)","Mission","6","SOUTHERN","2024/01/29 02:30:06 PM","2025/10/10 08:05:31 AM"
"LLP","1423","1026416","Active",,,"Spark Social SF","601 MISSION BAY BLVD NORTH","San Francisco","CA","POINT (-122.391405 37.770984)","Mission Bay","6","BAYVIEW","2024/01/29 02:30:06 PM","2025/10/10 08:05:31 AM"
"POE, MAD, EHP","1424","1076994","Active","P23","Place of Entertainment","August Hall & Fifth Arrow","430 MASON ST","San Francisco","CA","POINT (-122.409593008 37.787564997)","Tenderloin","3","CENTRAL","2024/01/29 02:30:06 PM","2025/10/10 08:05:31 AM"
"LLP","1427","0381606","Active",,,"Venice Pizza and Restaurant","5228 MISSION ST","San Francisco","CA","POINT (-122.4421335 37.715265)","Outer Mission","11","INGLESIDE","2024/01/29 02:30:06 PM","2025/10/10 08:05:31 AM"
"POE","1428","1006275","Active","P23","Place of Entertainment","Pandora Karaoke","50 MASON ST","San Francisco","CA","POINT (-122.4090315 37.784169)","Tenderloin","3","TENDERLOIN","2024/01/29 02:30:06 PM","2025/10/10 08:05:31 AM"
"BP","1429","1080766","Active",,,"Hockey Haven","3625 BALBOA ST","San Francisco","CA","POINT (-122.4978165 37.775448)","Outer Richmond","1","RICHMOND","2024/01/29 02:30:06 PM","2025/10/10 08:05:31 AM"
"LLP","1430","1070007","Active",,,"San Francisco Brewing Co.","3150 POLK ST","San Francisco","CA","POINT (-122.423643 37.806021)","Russian Hill","2","CENTRAL","2024/01/29 02:30:06 PM","2025/10/10 08:05:31 AM"
"LLP","1431","1023317","Active",,,"Barebottle Brewing Co.","1525 CORTLAND AVE","San Francisco","CA","POINT (-122.409018 37.740087)","Bernal Heights","9","INGLESIDE","2024/01/29 02:30:06 PM","2025/10/10 08:05:31 AM"
"LLP","1432","1081475","Active",,,"Magic Patio","3264 MISSION ST","San Francisco","CA","POINT (-122.4208665 37.744641)","Bernal Heights","9","INGLESIDE","2024/01/29 02:30:06 PM","2025/10/10 08:05:31 AM"
"LLP","1434","0441551","Active",,,"Venga Empanadas","443 VALENCIA ST","San Francisco","CA","POINT (-122.421672 37.765854)","Mission","9","MISSION","2024/01/29 02:30:06 PM","2025/10/10 08:05:31 AM"
"LLP","1435","1083821","Active",,,"SF Hole in the Wall Pizza","1827 IRVING ST","San Francisco","CA","POINT (-122.477649032 37.763337986)","Sunset/Parkside","4","TARAVAL","2024/01/29 02:30:06 PM","2025/10/10 08:05:31 AM"
"LLP","1436","1000819","Active",,,"Laughing Monk Brewing","1439 EGBERT AVE","San Francisco","CA","POINT (-122.393145208 37.722925593)","Bayview Hunters Point","10","BAYVIEW","2024/01/29 02:30:06 PM","2025/10/10 08:05:31 AM"
"LLP","1438","0399804","Active",,,"District","216 TOWNSEND ST","San Francisco","CA","POINT (-122.393358 37.778697)","South of Market","6","SOUTHERN","2024/01/29 02:30:06 PM","2025/10/10 08:05:31 AM"
"POE","1439","1080536","Active","P23","Place of Entertainment","El Valenciano","1153 VALENCIA ST","San Francisco","CA","POINT (-122.4205425 37.754523)","Mission","9","MISSION","2024/01/29 02:30:06 PM","2025/10/10 08:05:31 AM"
"POE","144","0324828","Active","P23","Place of Entertainment","W Hotel - XYZ RESTAURANT & WINE BAR","181 3RD ST","San Francisco","CA","POINT (-122.400468 37.785474)","Financial District/South Beach","6","SOUTHERN","2024/01/29 02:30:06 PM","2025/10/10 08:05:31 AM"
"POE","1440","0450358","Active","P23","Place of Entertainment","Zombie Village","441 JONES ST","San Francisco","CA","POINT (-122.4131535 37.785555)","Tenderloin","5","TENDERLOIN","2024/01/29 02:30:06 PM","2025/10/10 08:05:31 AM"
"POE","1442","1077519","Active","P23","Place of Entertainment","The Mint","1942 MARKET ST","San Francisco","CA","POINT (-122.4258525 37.770345)","Hayes Valley","8","NORTHERN","2024/01/29 02:30:06 PM","2025/10/10 08:05:31 AM"
"LLP","1444","0486563","Active",,,"Jamestown Premier GHRSQ, L.P. ( Ghiradelli Square )","900 NORTH POINT ST","San Francisco","CA","POINT (-122.4231975 37.805535)","Russian Hill","2","CENTRAL","2024/01/29 02:30:06 PM","2025/10/10 08:05:31 AM"
"LLP","1446","1003213","Active",,,"Stookey's Club Moderne","895 BUSH ST","San Francisco","CA","POINT (-122.411763 37.789551)","Nob Hill","3","CENTRAL","2024/01/29 02:30:06 PM","2025/10/10 08:05:31 AM"
"LLP","1449","0029736","Active",,,"Vesuvio","255 COLUMBUS AVE","San Francisco","CA","POINT (-122.4061245 37.797336)","Chinatown","3","CENTRAL","2024/01/29 02:30:06 PM","2025/10/10 08:05:31 AM"
"LLP","1450","0485515","Active",,,"Victory Hall & Parlor","360 RITCH ST","San Francisco","CA","POINT (-122.394078 37.778832)","South of Market","6","SOUTHERN","2024/01/29 02:30:06 PM","2025/10/10 08:05:31 AM"
"POE","1451",,"Active","P23","Place of Entertainment","BEI San Francisco","50 8TH ST","San Francisco","CA","POINT (-122.4142875 37.777572)","South of Market","6","SOUTHERN","2024/01/29 02:30:06 PM","2025/10/10 08:05:31 AM"
"POE","1453","0304368","Active","P23","Place of Entertainment","SF Giants/Oracle Park",,"San Francisco","CA",,,,,"2024/01/29 02:30:06 PM","2025/10/10 08:05:31 AM"
"LLP","1455","1082308","Active",,,"Palihotel San Francisco","417 STOCKTON ST","San Francisco","CA","POINT (-122.4074025 37.789803)","Financial District/South Beach","3","CENTRAL","2024/01/29 02:30:06 PM","2025/10/10 08:05:31 AM"
"LLP","1457","0459707","Active",,,"Rock Bar","80 29TH ST","San Francisco","CA","POINT (-122.422338 37.744074)","Bernal Heights","9","INGLESIDE","2024/01/29 02:30:06 PM","2025/10/10 08:05:31 AM"
"POE","1460","1088093","Active","P23","Place of Entertainment","Jolene's","2700 16TH ST","San Francisco","CA","POINT (-122.413536 37.765701)","Mission","9","MISSION","2024/01/29 02:30:06 PM","2025/10/10 08:05:31 AM"
"POE","1461","1070435","Active","P23","Place of Entertainment","San Francisco Proper Hotel","1100 MARKET ST","San Francisco","CA","POINT (-122.412483 37.780902)","Tenderloin","5","TENDERLOIN","2024/01/29 02:30:06 PM","2025/10/10 08:05:31 AM"
"LLP","1463","1073452","Active",,,"Manny's","3092 16TH ST","San Francisco","CA","POINT (-122.421609 37.765179)","Mission","9","MISSION","2024/01/29 02:30:06 PM","2025/10/10 08:05:31 AM"
"LLP","1465","0463182","Active",,,"Woods Polk Station","2255 POLK ST","San Francisco","CA","POINT (-122.4223965 37.797678)","Russian Hill","3","NORTHERN","2024/01/29 02:30:06 PM","2025/10/10 08:05:31 AM"
"POE","1466","0382512","Active","P23","Place of Entertainment","Executive Order Bar & Lounge","868 MISSION ST","San Francisco","CA","POINT (-122.4057735 37.783458)","South of Market","6","SOUTHERN","2024/01/29 02:30:06 PM","2025/10/10 08:05:31 AM"
"LLP","1469","0111067","Active",,,"Comstock Saloon","155 COLUMBUS AVE","San Francisco","CA","POINT (-122.405607 37.796787)","Chinatown","3","CENTRAL","2024/01/29 02:30:06 PM","2025/10/10 08:05:31 AM"
"EHP","1471","0368286","Active",,,"Vanity Nightclub","412 BROADWAY","San Francisco","CA","POINT (-122.404281982 37.798455981)","North Beach","3","CENTRAL","2024/01/29 02:30:06 PM","2025/10/10 08:05:31 AM"
"LLP","1473","1092708","Active",,,"El Lopo / The Pour House","1327 POLK ST","San Francisco","CA","POINT (-122.420637 37.78893)","Nob Hill","3","NORTHERN","2024/01/29 02:30:06 PM","2025/10/10 08:05:31 AM"
"POE, MAD","1474","1095941","Active","P23","Place of Entertainment","3910 Lounge","3910 GEARY BLVD","San Francisco","CA","POINT (-122.461434 37.78146)","Inner Richmond","1","RICHMOND","2024/01/29 02:30:06 PM","2025/10/10 08:05:31 AM"
"BP","1477","1097099","Active",,,"Peacekeeper","925 BUSH ST","San Francisco","CA","POINT (-122.4125235 37.789497)","Nob Hill","3","CENTRAL","2024/01/29 02:30:06 PM","2025/10/10 08:05:31 AM"
"LLP","1479","1010389","Active",,,"Minnesota Street Project","1275 MINNESOTA ST","San Francisco","CA","POINT (-122.3893935 37.754253)","Potrero Hill","10","BAYVIEW","2024/01/29 02:30:06 PM","2025/10/10 08:05:31 AM"
"LLP","1480","0397690","Active",,,"Cova Hotel","655 ELLIS ST","San Francisco","CA","POINT (-122.4170145 37.784016)","Tenderloin","5","TENDERLOIN","2024/01/29 02:30:06 PM","2025/10/10 08:05:31 AM"
"POE, EHP","1481","450957","Active","P23","Place of Entertainment","House of Thai","901 LARKIN ST","San Francisco","CA","POINT (-122.4182745 37.786275)","Tenderloin","3","NORTHERN","2024/01/29 02:30:06 PM","2025/10/10 08:05:31 AM"
"LLP","1482","1017781","Active",,,"Hotel Via","138 KING ST","San Francisco","CA","POINT (-122.3908695 37.779147)","Mission Bay","6","SOUTHERN","2024/01/29 02:30:06 PM","2025/10/10 08:05:31 AM"
"POE, MAD","1485","1096001","Active","P23","Place of Entertainment","The Valencia Room","647 VALENCIA ST","San Francisco","CA","POINT (-122.421393 37.762506)","Mission","9","MISSION","2024/01/29 02:30:06 PM","2025/10/10 08:05:31 AM"
"LLP","1487","1091951","Active",,,"Bazaar Café","5927 CALIFORNIA ST","San Francisco","CA","POINT (-122.481207 37.783827)","Outer Richmond","1","RICHMOND","2024/01/29 02:30:06 PM","2025/10/10 08:05:31 AM"
"POE","1490","0484699","Active","P23","Place of Entertainment","Monte Cristo Club","136 MISSOURI ST","San Francisco","CA","POINT (-122.3970435 37.764621)","Potrero Hill","10","BAYVIEW","2025/09/26 01:53:04 PM","2025/10/10 08:05:31 AM"
"LLP","1491","1092524","Active",,,"Harborview Restaurant & Bar","4 EMBARCADERO CTR","San Francisco","CA","POINT (-122.396236026 37.795534007)","Financial District/South Beach","3","CENTRAL","2024/01/29 02:30:06 PM","2025/10/10 08:05:31 AM"
"LLP","1493","1071108","Active",,,"Standard Deviant Brewing","280 14TH ST","San Francisco","CA","POINT (-122.4194805 37.768446)","Mission","9","MISSION","2024/01/29 02:30:06 PM","2025/10/10 08:05:31 AM"
"POE","1494","0370349","Active","P23","Place of Entertainment","Bernal Heights Neighborhood Center","515 CORTLAND AVE","San Francisco","CA","POINT (-122.416146 37.739232)","Bernal Heights","9","INGLESIDE","2025/09/26 01:46:44 PM","2025/10/10 08:05:31 AM"
"POE","1495","0939962","Active","P23","Place of Entertainment","Biscuits and Blues","401 MASON ST","San Francisco","CA","POINT (-122.410152 37.787301)","Tenderloin","3","CENTRAL","2024/01/29 02:30:06 PM","2025/10/10 08:05:31 AM"
"POE","1497","0401848","Active","P23","Place of Entertainment","Croatian Cultural Center of SF","60 ONONDAGA AVE","San Francisco","CA","POINT (-122.4388485 37.722015)","Outer Mission","11","INGLESIDE","2024/01/29 02:30:06 PM","2025/10/10 08:05:31 AM"
"POE","1498","0369914","Active","P23","Place of Entertainment","Hyatt Regency - San Francisco","5 EMBARCADERO CTR","San Francisco","CA","POINT (-122.39581802 37.794342981)","Financial District/South Beach","3","CENTRAL","2024/01/29 02:30:06 PM","2025/10/10 08:05:31 AM"
"POE","1499","0422654","Active","P23","Place of Entertainment","Ireland's 32","3920 GEARY BLVD","San Francisco","CA","POINT (-122.461434 37.781325)","Inner Richmond","1","RICHMOND","2024/01/29 02:30:06 PM","2025/10/10 08:05:31 AM"
"POE, BP","150","0948065","Active","P23","Place of Entertainment","MUCKY DUCK","1315 9TH AVE","San Francisco","CA","POINT (-122.46669 37.763775)","Inner Sunset","7","TARAVAL","2024/01/29 02:30:06 PM","2025/10/10 08:05:31 AM"
"MAD, BP","1501","1100047","Active",,,"Wild Side West","424 CORTLAND AVE","San Francisco","CA","POINT (-122.4171855 37.73889)","Bernal Heights","9","INGLESIDE","2024/01/29 02:30:06 PM","2025/10/10 08:05:31 AM"
"POE","1502","0357470","Active","P23","Place of Entertainment","S F ITALIAN ATHLETIC CLUB","1630 STOCKTON ST","San Francisco","CA","POINT (-122.409135 37.800882)","North Beach","3","CENTRAL","2025/09/26 01:54:42 PM","2025/10/10 08:05:31 AM"
"POE, EHP","1503","0385740","Active","P23","Place of Entertainment","CITY NIGHTS","715 HARRISON ST","San Francisco","CA","POINT (-122.397822 37.782063)","South of Market","6","SOUTHERN","2025/03/28 03:06:35 PM","2025/10/10 08:05:31 AM"
"MAD, BP","1506","0324889","Active",,,"Zeitgeist","199 VALENCIA ST","San Francisco","CA","POINT (-122.422113 37.77003)","Mission","9","SOUTHERN","2024/01/29 02:30:06 PM","2025/10/10 08:05:31 AM"
"POE","1510","0488301","Active","P23","Place of Entertainment","Bay Area Longshoremen's Hall","400 NORTH POINT ST","San Francisco","CA","POINT (-122.414715 37.806921)","North Beach","3","CENTRAL","2024/01/29 02:30:06 PM","2025/10/10 08:05:31 AM"
"MAD","1511","0325414","Active",,,"CLUB KRISTI","782 OFARRELL ST","San Francisco","CA","POINT (-122.4175095 37.785339)","Tenderloin","5","TENDERLOIN","2024/01/29 02:30:06 PM","2025/10/10 08:05:31 AM"
"POE","1513","0324628","Active","P23","Place of Entertainment","HARD ROCK CAFE","39 PIER","San Francisco","CA","POINT (-122.396222304 37.795040654)","Financial District/South Beach","3","CENTRAL","2024/01/29 02:30:06 PM","2025/10/10 08:05:31 AM"
"MAD","1514","0134493","Active",,,"PIER 39",,"San Francisco","CA",,,,,"2024/01/29 02:30:06 PM","2025/10/10 08:05:31 AM"
"EHP","1515","0486963","Active",,,"PORT OF SAN FRANCISCO","1 PIER","San Francisco","CA","POINT (-122.399660033 37.794666983)","Financial District/South Beach","3","CENTRAL","2024/01/29 02:30:06 PM","2025/10/10 08:05:31 AM"
"POE","1516","0486963","Active","P23","Place of Entertainment","PORT OF SAN FRANCISCO","1 PIER","San Francisco","CA","POINT (-122.399660033 37.794666983)","Financial District/South Beach","3","CENTRAL","2024/01/29 02:30:06 PM","2025/10/10 08:05:31 AM"
"POE","1517","0307402","Active","P23","Place of Entertainment","UNITY MUTUAL BENEFIT ASSOC.  / Peacock Lounge","548 HAIGHT ST","San Francisco","CA","POINT (-122.431383 37.772217)","Hayes Valley","5","NORTHERN","2025/04/14 01:10:20 PM","2025/10/10 08:05:31 AM"
"LLP","1518","451897","Active",,,"Anchor Brewing Company","1705 MARIPOSA ST","San Francisco","CA","POINT (-122.400963 37.763127)","Potrero Hill","10","BAYVIEW","2024/01/29 02:30:06 PM","2025/10/10 08:05:31 AM"
"LLP","1519","472585","Active",,,"Alchemist and Woodbury","685 3RD ST","San Francisco","CA","POINT (-122.392908 37.779291)","Financial District/South Beach","6","SOUTHERN","2024/01/29 02:30:06 PM","2025/10/10 08:05:31 AM"
"POE","152","0414825","Active","P23","Place of Entertainment","Bottom of the Hill","1233 17TH ST","San Francisco","CA","POINT (-122.396427 37.764927)","Potrero Hill","10","BAYVIEW","2024/01/29 02:30:06 PM","2025/10/10 08:05:31 AM"
"POE","1520","1100370","Active","P23","Place of Entertainment","Dimples Cocktail Lounge","1700 POST ST","San Francisco","CA","POINT (-122.429997 37.785672)","Japantown","5","NORTHERN","2024/01/29 02:30:06 PM","2025/10/10 08:05:31 AM"
"LLP","1522","1088893","Active",,,"Supreme Crab","245 JEFFERSON ST","San Francisco","CA","POINT (-122.4164745 37.807848)","North Beach","3","CENTRAL","2024/01/29 02:30:06 PM","2025/10/10 08:05:31 AM"
"POE","1524","1101325","Active","P23","Place of Entertainment","Kimbara","3380 19TH ST","San Francisco","CA","POINT (-122.4187425 37.760382)","Mission","9","MISSION","2024/01/29 02:30:06 PM","2025/10/10 08:05:31 AM"
"LLP, BP","1526","454590","Active",,,"St. Mary's Pub","3845 MISSION ST","San Francisco","CA","POINT (-122.4244035 37.735461)","Bernal Heights","9","INGLESIDE","2024/01/29 02:30:06 PM","2025/10/10 08:05:31 AM"
"EHP","1527","1083011","Active",,,"Happy Donuts","3801 24TH ST","San Francisco","CA","POINT (-122.427585 37.751598)","Noe Valley","8","MISSION","2024/01/29 02:30:06 PM","2025/10/10 08:05:31 AM"
"BP","1528","1017344","Active",,,"Ha-Ra Club","875 GEARY ST","San Francisco","CA","POINT (-122.417613 37.785978)","Tenderloin","5","TENDERLOIN","2025/06/25 04:33:08 PM","2025/10/10 08:05:31 AM"
"LLP, BP","1529","1016839","Active",,,"The Blue Light","1979 UNION ST","San Francisco","CA","POINT (-122.431653 37.797345)","Marina","2","NORTHERN","2024/01/29 02:30:06 PM","2025/10/10 08:05:31 AM"
"POE","1533","0435423","Active","P23","Place of Entertainment","The Hibernia","1 JONES ST","San Francisco","CA","POINT (-122.412447 37.781379)","Tenderloin","5","TENDERLOIN","2025/01/30 04:11:58 PM","2025/10/10 08:05:31 AM"
"BP","1534","1103531","Active",,,"Lost Resort","2736 20TH ST","San Francisco","CA","POINT (-122.408757 37.759473)","Mission","9","MISSION","2024/01/29 02:30:06 PM","2025/10/10 08:05:31 AM"
"LLP","1538","324889","Active",,,"Zeitgeist","199 VALENCIA ST","San Francisco","CA","POINT (-122.422113 37.77003)","Mission","9","SOUTHERN","2024/01/29 02:30:06 PM","2025/10/10 08:05:31 AM"
"LLP","1539","0429796","Active",,,"MERCURY CAFE","201 OCTAVIA ST","San Francisco","CA","POINT (-122.424336 37.773999)","Hayes Valley","5","NORTHERN","2025/04/29 03:23:40 PM","2025/10/10 08:05:31 AM"
"POE","154","0367892","Active","P23","Place of Entertainment","Barbarossa","714 MONTGOMERY ST","San Francisco","CA","POINT (-122.4030825 37.795905)","Chinatown","3","CENTRAL","2024/01/29 02:30:06 PM","2025/10/10 08:05:31 AM"
"POE, MAD, BP","1540","1101267","Active","P23","Place of Entertainment","Westwood","2036 LOMBARD ST","San Francisco","CA","POINT (-122.435487 37.800252)","Marina","2","NORTHERN","2024/01/29 02:30:06 PM","2025/10/10 08:05:31 AM"
"LLP","1541","1097980","Active",,,"Velo Rouge Café","798 ARGUELLO BLVD","San Francisco","CA","POINT (-122.458275 37.775376)","Lone Mountain/USF","1","RICHMOND","2024/01/29 02:30:06 PM","2025/10/10 08:05:31 AM"
"POE, EHP","1542","1021268","Active","P23","Place of Entertainment","FAIRMONT HOTEL / The Laurel Court Bar","950 MASON ST","San Francisco","CA","POINT (-122.410683 37.792179)","Nob Hill","3","CENTRAL","2024/01/29 02:30:06 PM","2025/10/10 08:05:31 AM"
"POE","1543","1093823","Active","P23","Place of Entertainment","Hotel Whitcomb","1231 MARKET ST","San Francisco","CA","POINT (-122.414805 37.77795)","South of Market","6","SOUTHERN","2024/01/29 02:30:06 PM","2025/10/10 08:05:31 AM"
"LLP","1545","0483348","Active",,,"Adobe Books","3130 24TH ST","San Francisco","CA","POINT (-122.4147915 37.752669)","Mission","9","MISSION","2024/01/29 02:30:06 PM","2025/10/10 08:05:31 AM"
"LLP","1546","1002098","Active",,,"Temo's Café","3000 24TH ST","San Francisco","CA","POINT (-122.412213 37.752804)","Mission","9","MISSION","2024/01/29 02:30:06 PM","2025/10/10 08:05:31 AM"
"LLP","1548","0121735","Active",,,"Silverstone Café","3278 24TH ST","San Francisco","CA","POINT (-122.4179955 37.752489)","Mission","9","MISSION","2024/01/29 02:30:06 PM","2025/10/10 08:05:31 AM"
"LLP","1549","1106304","Active",,,"Macondray","2209 POLK ST","San Francisco","CA","POINT (-122.4222795 37.797093)","Russian Hill","3","NORTHERN","2025/03/28 03:06:35 PM","2025/10/10 08:05:31 AM"
"POE","1551","0316853","Active","P23","Place of Entertainment","MoMo's","760 2ND ST","San Francisco","CA","POINT (-122.390226 37.779849)","Mission Bay","6","SOUTHERN","2024/01/29 02:30:06 PM","2025/10/10 08:05:31 AM"
"LLP","1554","485594","Active",,,"Poc-Chuc Restaurant","2886 16TH ST","San Francisco","CA","POINT (-122.4171045 37.765476)","Mission","9","MISSION","2024/01/29 02:30:06 PM","2025/10/10 08:05:31 AM"
"BP","1555","422654","Active",,,"Ireland's 32","3920 GEARY BLVD","San Francisco","CA","POINT (-122.461434 37.781325)","Inner Richmond","1","RICHMOND","2024/01/29 02:30:06 PM","2025/10/10 08:05:31 AM"
"LLP","1559","1088231","Active",,,"El Trebol","3149 22ND ST","San Francisco","CA","POINT (-122.4173385 37.755333)","Mission","9","MISSION","2024/01/29 02:30:06 PM","2025/10/10 08:05:31 AM"
"EHP","1563","1026767","Active",,,"The Midway","900 MARIN ST","San Francisco","CA","POINT (-122.385681 37.749285)","Bayview Hunters Point","10","BAYVIEW","2024/01/29 02:30:06 PM","2025/10/10 08:05:31 AM"
"LLP","1564","1005997","Active",,,"Stanford Court Hotel","905 CALIFORNIA ST","San Francisco","CA","POINT (-122.409423 37.791864)","Nob Hill","3","CENTRAL","2024/01/29 02:30:06 PM","2025/10/10 08:05:31 AM"
"POE","1567","1109150","Active","P23","Place of Entertainment","K-Time Karaoke","870 TARAVAL ST","San Francisco","CA","POINT (-122.475319875 37.743098939)","West of Twin Peaks","7","TARAVAL","2024/01/29 02:30:06 PM","2025/10/10 08:05:31 AM"
"POE","1569","1109651","Active","P23","Place of Entertainment","Brick and Mortar","1710 MISSION ST","San Francisco","CA","POINT (-122.4203985 37.769724)","Mission","9","MISSION","2024/01/29 02:30:06 PM","2025/10/10 08:05:31 AM"
"POE","1570","1064954","Active","P23","Place of Entertainment","Intercontinental Mark Hopkins","999 CALIFORNIA ST","San Francisco","CA","POINT (-122.41026 37.791414)","Nob Hill","3","CENTRAL","2024/01/29 02:30:06 PM","2025/10/10 08:05:31 AM"
"POE","1573","197374","Active","P23","Place of Entertainment","The Rite Spot","2099 FOLSOM ST","San Francisco","CA","POINT (-122.414994 37.763838)","Mission","9","MISSION","2024/01/29 02:30:06 PM","2025/10/10 08:05:31 AM"
"POE","1574","1095161","Active","P23","Place of Entertainment","Nightingale","239 KEARNY ST","San Francisco","CA","POINT (-122.404194 37.790316)","Financial District/South Beach","3","CENTRAL","2024/01/29 02:30:06 PM","2025/10/10 08:05:31 AM"
"LLP","1582","1083345","Active",,,"Recovery Room","4528 MISSION ST","San Francisco","CA","POINT (-122.434353 37.725507)","Outer Mission","11","INGLESIDE","2024/01/29 02:30:06 PM","2025/10/10 08:05:31 AM"
"POE, EHP","1584","1117520","Active","P23","Place of Entertainment","Layaly LLC","1501 FOLSOM ST","San Francisco","CA","POINT (-122.414022 37.771596)","Mission","6","SOUTHERN","2024/01/29 02:30:06 PM","2025/10/10 08:05:31 AM"
"POE","1586","1106755","Active","P23","Place of Entertainment","Arcana SF","2512 MISSION ST","San Francisco","CA","POINT (-122.419188 37.756737)","Mission","9","MISSION","2024/01/29 02:30:06 PM","2025/10/10 08:05:31 AM"
"POE","1587","1118267","Active","P23","Place of Entertainment","Lion's Den Bar and Lounge","57 WENTWORTH PL","San Francisco","CA","POINT (-122.4062775 37.795752)","Chinatown","3","CENTRAL","2024/01/29 02:30:06 PM","2025/10/10 08:05:31 AM"
"POE","1588","1122800","Active","P23","Place of Entertainment","Club Fugazi Experiences","678 GREEN ST","San Francisco","CA","POINT (-122.410278 37.79964)","Chinatown","3","CENTRAL","2024/01/29 02:30:06 PM","2025/10/10 08:05:31 AM"
"POE","1590","481442","Active","P23","Place of Entertainment","Cadillac Bar and Grill","1355 MARKET ST","San Francisco","CA","POINT (-122.4164835 37.777131)","South of Market","6","SOUTHERN","2024/01/29 02:30:06 PM","2025/10/10 08:05:31 AM"
"LLP","1591","1013255","Active",,,"The Italian Homemade Company","1919 UNION ST","San Francisco","CA","POINT (-122.430987 37.797435)","Marina","2","NORTHERN","2024/01/29 02:30:06 PM","2025/10/10 08:05:31 AM"
"POE","1592","1113603","Active","P23","Place of Entertainment","The Reserve","301 BATTERY ST","San Francisco","CA","POINT (-122.4007965 37.794294)","Chinatown","3","CENTRAL","2024/01/29 02:30:06 PM","2025/10/10 08:05:31 AM"
"POE","1593","1110180","Active","P23","Place of Entertainment","Nickie's","466 HAIGHT ST","San Francisco","CA","POINT (-122.429871 37.772415)","Hayes Valley","5","NORTHERN","2024/01/29 02:30:06 PM","2025/10/10 08:05:31 AM"
"LLP","1596","1114232","Active",,,"Red Window","500 COLUMBUS AVE","San Francisco","CA","POINT (-122.4092835 37.799883)","North Beach","3","CENTRAL","2025/02/04 12:42:30 PM","2025/10/10 08:05:31 AM"
"LLP","1597","1060205","Active",,,"Endgames Improv (location 2)","2965 MISSION ST","San Francisco","CA","POINT (-122.417865 37.749681)","Mission","9","MISSION","2024/01/29 02:30:06 PM","2025/10/10 08:05:31 AM"
"LLP","1598","1124634","Active",,,"The Foundry SF","1425 FOLSOM ST","San Francisco","CA","POINT (-122.412924 37.772271)","South of Market","6","SOUTHERN","2024/01/29 02:30:06 PM","2025/10/10 08:05:31 AM"
"LLP","1599","1112885","Active",,,"The Mellow SF","1401 HAIGHT ST","San Francisco","CA","POINT (-122.4456615 37.769994)","Haight Ashbury","5","PARK","2024/01/29 02:30:06 PM","2025/10/10 08:05:31 AM"
"LLP, MAD, BP","1600","1124462","Active",,,"Bus Stop","1901 UNION ST","San Francisco","CA","POINT (-122.4307215 37.797543)","Marina","2","NORTHERN","2024/01/29 02:30:06 PM","2025/10/10 08:05:31 AM"
"LLP","1601","0397243","Active",,,"Gestalt","3159 16TH ST","San Francisco","CA","POINT (-122.4233145 37.764576)","Mission","9","MISSION","2024/01/29 02:30:06 PM","2025/10/10 08:05:31 AM"
"LLP","1603","0433003","Active",,,"La Cocina Municipal Marketplace","101 HYDE ST","San Francisco","CA","POINT (-122.4157095 37.781838)","Tenderloin","5","TENDERLOIN","2024/01/29 02:30:06 PM","2025/10/10 08:05:31 AM"
"POE","1604","1086612","Active","P23","Place of Entertainment","The Clift Royal Sonesta Hotel","495 GEARY ST","San Francisco","CA","POINT (-122.4111195 37.786707)","Tenderloin","3","TENDERLOIN","2024/01/29 02:30:06 PM","2025/10/10 08:05:31 AM"
"LLP","1605","1122409","Active",,,"Vic's Winehouse on Fillmore","1870 FILLMORE ST","San Francisco","CA","POINT (-122.4332685 37.786698)","Pacific Heights","5","NORTHERN","2024/01/29 02:30:06 PM","2025/10/10 08:05:31 AM"
"LLP","1606","1015750","Active",,,"El Farolito Bar","2777 MISSION ST","San Francisco","CA","POINT (-122.4181395 37.75266)","Mission","9","MISSION","2024/01/29 02:30:06 PM","2025/10/10 08:05:31 AM"
"POE","1607","1147352","Active","P23","Place of Entertainment","Paris 75","515 BROADWAY","San Francisco","CA","POINT (-122.405877 37.79775)","North Beach","3","CENTRAL","2024/03/13 11:35:10 AM","2025/10/10 08:05:31 AM"
"BP","1609","1106728","Active",,,"Karl's Beacon","1355 TARAVAL ST","San Francisco","CA","POINT (-122.480865 37.74258)","Sunset/Parkside","4","TARAVAL","2024/01/29 02:30:06 PM","2025/10/10 08:05:31 AM"
"POE, MAD, BP","161","0382151","Active","P23","Place of Entertainment","DELIRIUM COCKTAILS","3139 16TH ST","San Francisco","CA","POINT (-122.42268 37.764657)","Mission","9","MISSION","2024/01/29 02:30:06 PM","2025/10/10 08:05:31 AM"
"LLP","1610","1122954","Active",,,"Sool Bar & Lounge","323 GRANT AVE","San Francisco","CA","POINT (-122.405715 37.789974)","Financial District/South Beach","3","CENTRAL","2024/01/29 02:30:06 PM","2025/10/10 08:05:31 AM"
"POE, EHP","1611","1128118","Active","P23","Place of Entertainment","The Record Store","177 EDDY ST","San Francisco","CA","POINT (-122.4103995 37.783935)","Tenderloin","5","TENDERLOIN","2024/01/29 02:30:06 PM","2025/10/10 08:05:31 AM"
"POE","1613","1125754","Active","P23","Place of Entertainment","Tai-Sho","1161 POST ST","San Francisco","CA","POINT (-122.420898 37.786446)","Tenderloin","3","NORTHERN","2024/01/29 02:30:06 PM","2025/10/10 08:05:31 AM"
"POE","1615","1097520","Active","P23","Place of Entertainment","HEMLOCK TAVERN","1131 POLK ST","San Francisco","CA","POINT (-122.420313 37.787472)","Nob Hill","3","NORTHERN","2025/03/28 03:06:35 PM","2025/10/10 08:05:31 AM"
"LLP","1616","0449597","Active",,,"THE BRIXTON","2140 UNION ST","San Francisco","CA","POINT (-122.434578 37.797498)","Marina","2","NORTHERN","2025/10/07 01:51:32 PM","2025/10/10 08:05:31 AM"
"POE, BP","1617","1125062","Active","P23","Place of Entertainment","Persona","685 SUTTER ST","San Francisco","CA","POINT (-122.4114705 37.788759)","Nob Hill","3","CENTRAL","2024/01/29 02:30:06 PM","2025/10/10 08:05:31 AM"
"POE, BP","1618","1129746","Active","P23","Place of Entertainment","GeeLou","3251 SCOTT ST","San Francisco","CA","POINT (-122.441409 37.799829)","Marina","2","NORTHERN","2025/02/06 11:42:30 AM","2025/10/10 08:05:31 AM"
"POE","1620","1064205","Active","P23","Place of Entertainment","The Lost Church","665 CHESTNUT ST","San Francisco","CA","POINT (-122.4143775 37.803465)","North Beach","3","CENTRAL","2024/01/29 02:30:06 PM","2025/10/10 08:05:31 AM"
"LLP","1621","476804","Active",,,"Community Art Stabilization Trust","447 MINNA ST","San Francisco","CA","POINT (-122.406894 37.781325)","South of Market","6","SOUTHERN","2024/01/29 02:30:06 PM","2025/10/10 08:05:31 AM"
"POE","1622","475917","Active","P23","Place of Entertainment","Southeast Community Center","1550 EVANS AVE","San Francisco","CA","POINT (-122.387346918 37.742526383)","Bayview Hunters Point","10","BAYVIEW","2024/01/29 02:30:06 PM","2025/10/10 08:05:31 AM"
"LLP","1624","1132462","Active",,,"5M Project Owners Association","430 NATOMA ST","San Francisco","CA","POINT (-122.4063225 37.781487)","South of Market","6","SOUTHERN","2025/02/06 01:43:51 PM","2025/10/10 08:05:31 AM"
"LLP","1625","396103","Active",,,"The Napper Tandy","3200 24TH ST","San Francisco","CA","POINT (-122.4166005 37.75248)","Mission","9","MISSION","2024/01/29 02:30:06 PM","2025/10/10 08:05:31 AM"
"LLP","1627","1124761","Active",,,"Kaiyo Rooftop and Bar","701 3RD ST","San Francisco","CA","POINT (-122.392269 37.778823)","Mission Bay","6","SOUTHERN","2024/01/29 02:30:06 PM","2025/10/10 08:05:31 AM"
"LLP","1629","458500","Active",,,"Churchill","198 CHURCH ST","San Francisco","CA","POINT (-122.429196 37.767951)","Castro/Upper Market","8","NORTHERN","2024/01/29 02:30:06 PM","2025/10/10 08:05:31 AM"
"LLP","1630","460444","Active",,,"Gold Cane","1569 HAIGHT ST","San Francisco","CA","POINT (-122.4479655 37.769598)","Haight Ashbury","5","PARK","2024/01/29 02:30:06 PM","2025/10/10 08:05:31 AM"
"POE","1631","1154422","Active","P23","Place of Entertainment","Natoma Cabana","90 NATOMA ST","San Francisco","CA","POINT (-122.3985825 37.787607)","Financial District/South Beach","6","SOUTHERN","2024/01/29 02:30:06 PM","2025/10/10 08:05:31 AM"
"MAD","1632",,"Active",,,"Thriller Social Club","508 4TH ST","San Francisco","CA","POINT (-122.398092 37.779201)","South of Market","6","SOUTHERN","2024/01/29 02:30:06 PM","2025/10/10 08:05:31 AM"
"LLP","1633","1085563","Active",,,"Skylight Studios","1800 MISSION ST","San Francisco","CA","POINT (-122.4202005 37.767861)","Mission","9","MISSION","2024/01/29 02:30:06 PM","2025/10/10 08:05:31 AM"
"LLP","1636","1130719","Active",,,"Underdogs Cantina","128 KING ST","San Francisco","CA","POINT (-122.3907255 37.779507)","Mission Bay","6","SOUTHERN","2024/01/29 02:30:06 PM","2025/10/10 08:05:31 AM"
"LLP","1637","1080534","Active",,,"Aura Restaurant & Bar","2368 3RD ST","San Francisco","CA","POINT (-122.388795 37.75959)","Potrero Hill","10","BAYVIEW","2024/01/29 02:30:06 PM","2025/10/10 08:05:31 AM"
"LLP","1638","477366","Active",,,"The Klamath",,"San Francisco","CA",,,,,"2024/01/29 02:30:06 PM","2025/10/10 08:05:31 AM"
"LLP","1640","1107730","Active",,,"Barley","1038 POLK ST","San Francisco","CA","POINT (-122.4196515 37.786608)","Tenderloin","3","NORTHERN","2024/01/29 02:30:06 PM","2025/10/10 08:05:31 AM"
"LLP","1642","441113","Active",,,"The Grove - Yerba Buena","690 MISSION ST","San Francisco","CA","POINT (-122.401953 37.786554)","Financial District/South Beach","6","SOUTHERN","2024/01/29 02:30:06 PM","2025/10/10 08:05:31 AM"
"POE","1644","378507","Active","P23","Place of Entertainment","Big Baobab","2243 MISSION ST","San Francisco","CA","POINT (-122.419089 37.76112)","Mission","9","MISSION","2024/01/29 02:30:06 PM","2025/10/10 08:05:31 AM"
"LLP","1645","1109351","Active",,,"Kona's Street Market","32 3RD ST","San Francisco","CA","POINT (-122.4032625 37.787049)","Financial District/South Beach","6","SOUTHERN","2024/01/29 02:30:06 PM","2025/10/10 08:05:31 AM"
"LLP","1646","1134103","Active",,,"Unwined","9 WEST PORTAL AVE","San Francisco","CA","POINT (-122.465799 37.740681)","West of Twin Peaks","7","TARAVAL","2024/01/29 02:30:06 PM","2025/10/10 08:05:31 AM"
"POE","1647","1132991","Active","P23","Place of Entertainment","Lyon and Swan","124 COLUMBUS AVE","San Francisco","CA","POINT (-122.4046845 37.796679)","Chinatown","3","CENTRAL","2025/02/26 03:08:48 PM","2025/10/10 08:05:31 AM"
"LLP","1648","1128380","Active",,,"Stable Café","2128 FOLSOM ST","San Francisco","CA","POINT (-122.415471 37.763217)","Mission","9","MISSION","2024/01/29 02:30:06 PM","2025/10/10 08:05:31 AM"
"LLP","1649","1133621","Active",,,"The Old Clam House","299 BAY SHORE BLVD","San Francisco","CA","POINT (-122.4048645 37.743066)","Bayview Hunters Point","10","BAYVIEW","2024/01/29 02:30:06 PM","2025/10/10 08:05:31 AM"
"LLP, BP","1650","1131684","Active",,,"Pitts Pub","4207 JUDAH ST","San Francisco","CA","POINT (-122.5073385 37.76013)","Sunset/Parkside","4","TARAVAL","2024/01/29 02:30:06 PM","2025/10/10 08:05:31 AM"
"LLP","1651","1117142","Active",,,"That's Amore SF","1901 OCEAN AVE","San Francisco","CA","POINT (-122.4625095 37.725039)","West of Twin Peaks","7","TARAVAL","2024/01/29 02:30:06 PM","2025/10/10 08:05:31 AM"
"LLP","1652","1090138","Active",,,"Ora Wine Bar","1519 POLK ST","San Francisco","CA","POINT (-122.420889 37.790784)","Nob Hill","3","NORTHERN","2024/01/29 02:30:06 PM","2025/10/10 08:05:31 AM"
"POE","1653","1133682","Active","P23","Place of Entertainment","Dahlia Lounge","1799 MISSION ST","San Francisco","CA","POINT (-122.419737 37.76841)","Mission","9","MISSION","2024/01/29 02:30:06 PM","2025/10/10 08:05:31 AM"
"POE","1654","1124924","Active","P23","Place of Entertainment","Candlestick Park Bar","747 3RD ST","San Francisco","CA","POINT (-122.391999 37.778508)","Mission Bay","6","SOUTHERN","2024/01/29 02:30:06 PM","2025/10/10 08:05:31 AM"
"LLP","1656","1094558","Active",,,"The Vault Restaurant","555 CALIFORNIA ST","San Francisco","CA","POINT (-122.403486037 37.792262006)","Financial District/South Beach","3","CENTRAL","2024/01/29 02:30:06 PM","2025/10/10 08:05:31 AM"
"POE","1657","1129511","Active","P23","Place of Entertainment","Keys Jazz Bistro","498 BROADWAY","San Francisco","CA","POINT (-122.40537842 37.7980607)","North Beach","3","CENTRAL","2024/01/29 02:30:06 PM","2025/10/10 08:05:31 AM"
"LLP","1658","1129532","Active",,,"For the Record","2120 GREENWICH ST","San Francisco","CA","POINT (-122.435496 37.799217)","Marina","2","NORTHERN","2025/02/11 01:18:12 PM","2025/10/10 08:05:31 AM"
"POE","1659",,"Active","P23","Place of Entertainment","Dawn Club & Lark Bar","685 MARKET ST","San Francisco","CA","POINT (-122.402772 37.787652)","Financial District/South Beach","6","SOUTHERN","2024/01/29 02:30:06 PM","2025/10/10 08:05:31 AM"
"POE","1660","1135503","Active","P23","Place of Entertainment","Harlan Records","18 HARLAN PL","San Francisco","CA","POINT (-122.404807882 37.790216844)","Financial District/South Beach","3","CENTRAL","2024/01/29 02:30:06 PM","2025/10/10 08:05:31 AM"
"LLP","1661","1087347","Active",,,"Union Station","2075 MISSION ST","San Francisco","CA","POINT (-122.4190575 37.763865)","Mission","9","MISSION","2024/01/29 02:30:06 PM","2025/10/10 08:05:31 AM"
"LLP","1662","1020981","Active",,,"Moe Greens","1276 MARKET ST","San Francisco","CA","POINT (-122.416074 37.778112)","Tenderloin","6","TENDERLOIN","2024/01/29 02:30:06 PM","2025/10/10 08:05:31 AM"
"LLP","1663","474382","Active",,,"Barbary Coast","952 MISSION ST","San Francisco","CA","POINT (-122.4078705 37.782063)","South of Market","6","SOUTHERN","2025/03/05 03:51:42 PM","2025/10/10 08:05:31 AM"
"LLP","1664","429615","Active",,,"McTeague's Saloon","1237 POLK ST","San Francisco","CA","POINT (-122.4205785 37.788363)","Nob Hill","3","NORTHERN","2024/01/29 02:30:06 PM","2025/10/10 08:05:31 AM"
"POE","1665","1137152","Active","P23","Place of Entertainment","Cavana Rooftop Bar","108 CHANNEL ST","San Francisco","CA","POINT (-122.390505 37.774719)","Mission Bay","6","BAYVIEW","2024/01/29 02:30:06 PM","2025/10/10 08:05:31 AM"
"LLP","1666","1132807","Active",,,"Mona Lisa Mare E Monti","414 COLUMBUS AVE","San Francisco","CA","POINT (-122.408028 37.799082)","North Beach","3","CENTRAL","2024/01/29 02:30:06 PM","2025/10/10 08:05:31 AM"
"LLP","1667","1135200","Active",,,"Arepas","3198 16TH ST","San Francisco","CA","POINT (-122.423931 37.765017)","Mission","9","MISSION","2024/01/29 02:30:06 PM","2025/10/10 08:05:31 AM"
"LLP","1669","1087904","Active",,,"Eye and Hand Society","3245 BALBOA ST","San Francisco","CA","POINT (-122.493542083 37.775868364)","Outer Richmond","1","RICHMOND","2024/01/29 02:30:06 PM","2025/10/10 08:05:31 AM"
"POE, BP","1670","1140029","Active","P23","Place of Entertainment","Kilowatt","3160 16TH ST","San Francisco","CA","POINT (-122.4232605 37.765071)","Mission","9","MISSION","2024/01/29 02:30:06 PM","2025/10/10 08:05:31 AM"
"LLP","1671","339377","Active",,,"Libreria Pino/Telegraph Hill Books","1501 GRANT AVE","San Francisco","CA","POINT (-122.407857 37.800783)","North Beach","3","CENTRAL","2024/01/29 02:30:06 PM","2025/10/10 08:05:31 AM"
"LLP","1672","322936","Active",,,"Intersection for the Arts","1446 MARKET ST","San Francisco","CA","POINT (-122.4185895 37.776177)","Tenderloin","6","NORTHERN","2024/01/29 02:30:06 PM","2025/10/10 08:05:31 AM"
"POE","1673","1120111","Active","P23","Place of Entertainment","Bar Part Time","496 14TH ST","San Francisco","CA","POINT (-122.4241875 37.768221)","Mission","9","MISSION","2024/01/29 02:30:06 PM","2025/10/10 08:05:31 AM"
"POE","1674",,"Active","P23","Place of Entertainment","Mother","3079 16TH ST","San Francisco","CA","POINT (-122.4213345 37.764684)","Mission","9","MISSION","2025/03/28 03:06:35 PM","2025/10/10 08:05:31 AM"
"LLP","1675","1031595","Active",,,"The Korner Store Bites & Vibes","4516 MISSION ST","San Francisco","CA","POINT (-122.4344205 37.725696)","Outer Mission","11","INGLESIDE","2025/03/28 03:06:35 PM","2025/10/10 08:05:31 AM"
"LLP","1676","0391888","Active",,,"PIAZZA PELLEGRINI","659 COLUMBUS AVE","San Francisco","CA","POINT (-122.4115155 37.800981)","Chinatown","3","CENTRAL","2025/03/28 03:06:35 PM","2025/10/10 08:05:31 AM"
"LLP","1677","1080987","Active",,,"METRO EVENTS LLC","27 THE EMBARCADERO","San Francisco","CA","POINT (-122.4156024 37.809023846)","North Beach","3","CENTRAL","2025/03/28 03:06:35 PM","2025/10/10 08:05:31 AM"
"LLP","1678","1133730","Active",,,"RUDI'S SPORTS BAR & RESTAURANT","3108 16TH ST","San Francisco","CA","POINT (-122.422248 37.765143)","Mission","9","MISSION","2025/03/28 03:06:35 PM","2025/10/10 08:05:31 AM"
"LLP","1679","1094327","Active",,,"SHIPYARD TRUST FOR THE ARTS","101 HORNE AVE","San Francisco","CA","POINT (-122.365044 37.727568)","Bayview Hunters Point","10","BAYVIEW","2025/03/28 03:06:35 PM","2025/10/10 08:05:31 AM"
"LLP","1681","1126200","Active",,,"540","540 CLEMENT ST","San Francisco","CA","POINT (-122.465124 37.783179)","Inner Richmond","1","RICHMOND","2025/07/17 09:45:09 AM","2025/10/10 08:05:31 AM"
"POE","1682","0430159","Active","P23","Place of Entertainment","MUSIC CITY HOTEL","1353 BUSH ST","San Francisco","CA","POINT (-122.4195525 37.788534)","Nob Hill","3","NORTHERN","2025/03/28 03:06:35 PM","2025/10/10 08:05:31 AM"
"LLP","1684","1067568","Active",,,"ROCKS DEN","4753 MISSION ST","San Francisco","CA","POINT (-122.4364185 37.722123)","Excelsior","11","INGLESIDE","2025/03/28 03:06:35 PM","2025/10/10 08:05:31 AM"
"LLP","1686","0469286","Active",,,"FIG & THISTLE","429 GOUGH ST","San Francisco","CA","POINT (-122.4233145 37.777239)","Hayes Valley","5","NORTHERN","2025/03/28 03:06:35 PM","2025/10/10 08:05:31 AM"
"LLP","1687","1123679","Active",,,"SYZYGY ACADEMY","395 SOUTH VAN NESS AVE","San Francisco","CA","POINT (-122.41737 37.767015)","Mission","9","MISSION","2025/03/28 03:06:35 PM","2025/10/10 08:05:31 AM"
"LLP","1688","0448434","Active",,,"The City Station","701 VALENCIA ST","San Francisco","CA","POINT (-122.4212895 37.761507)","Mission","9","MISSION","2025/03/28 03:06:35 PM","2025/10/10 08:05:31 AM"
"FPAS","1689","1123524","Active",,,"PROPOSITION CHICKEN","3465 CALIFORNIA ST","San Francisco","CA","POINT (-122.451111 37.786302)","Presidio Heights","2","RICHMOND","2025/03/28 03:06:35 PM","2025/10/10 08:05:31 AM"
"LLP","1690","0490623","Active",,,"SVN West","10 SOUTH VAN NESS AVE","San Francisco","CA","POINT (-122.4194985 37.77426)","Mission","6","SOUTHERN","2025/03/28 03:06:35 PM","2025/10/10 08:05:31 AM"
"LLP","1691","0374410","Active",,,"RULLI RISTO-BAR","2300 CHESTNUT ST","San Francisco","CA","POINT (-122.441499 37.800351)","Marina","2","NORTHERN","2025/03/31 03:49:55 PM","2025/10/10 08:05:31 AM"
"FPAS","1692","1084632","Active",,,"PARKLAB GARDENS","1379 4TH ST","San Francisco","CA","POINT (-122.391200008 37.77124795)","Mission Bay","6","BAYVIEW","2025/03/28 03:06:35 PM","2025/10/10 08:05:31 AM"
"FPAS","1693","1109714","Active",,,"TACO BOYS","2312 MARKET ST","San Francisco","CA","POINT (-122.4338085 37.764)","Castro/Upper Market","8","PARK","2025/03/28 03:06:35 PM","2025/10/10 08:05:31 AM"
"LLP","1695","0490623","Active",,,"The Mint","88 5TH ST","San Francisco","CA","POINT (-122.407218 37.782747)","South of Market","6","SOUTHERN","2025/03/28 03:06:35 PM","2025/10/10 08:05:31 AM"
"POE","1696","1139687","Active","P23","Place of Entertainment","PASHA MEDITERRANEAN","673 GEARY ST","San Francisco","CA","POINT (-122.4143325 37.786374)","Tenderloin","5","TENDERLOIN","2025/03/28 03:06:35 PM","2025/10/10 08:05:31 AM"
"LLP","1697","1118794","Active",,,"TRELLIS","981 MISSION ST","San Francisco","CA","POINT (-122.408163 37.781244)","South of Market","6","SOUTHERN","2025/03/28 03:06:35 PM","2025/10/10 08:05:31 AM"
"LLP","1698","0182926","Active",,,"Mario's Bohemian Cigar Store Cafe","566 COLUMBUS AVE","San Francisco","CA","POINT (-122.4098055 37.800225)","North Beach","3","CENTRAL","2025/03/28 03:06:35 PM","2025/10/10 08:05:31 AM"
"POE","1700","1124634","Active","P23","Place of Entertainment","THE FOUNDRY SF","1425 FOLSOM ST","San Francisco","CA","POINT (-122.412924 37.772271)","South of Market","6","SOUTHERN","2025/03/28 03:06:35 PM","2025/10/10 08:05:31 AM"
"LLP","1701","1112695","Active",,,"HUDSON ONE FERRY REIT, L.P.",,"San Francisco","CA",,,,,"2025/03/28 03:06:35 PM","2025/10/10 08:05:31 AM"
"POE","1702","1145055","Active","P23","Place of Entertainment","THE CONSERVATORY AT ONE SANSOME & HOLBROOK HOUSE","1 SANSOME ST","San Francisco","CA","POINT (-122.400954 37.790487)","Financial District/South Beach","3","CENTRAL","2025/05/29 03:51:03 PM","2025/10/10 08:05:31 AM"
"LLP","1703","0461317","Active",,,"MURIO'S","1811 HAIGHT ST","San Francisco","CA","POINT (-122.452218 37.769229)","Haight Ashbury","5","PARK","2025/03/28 03:06:35 PM","2025/10/10 08:05:31 AM"
"LLP","1704","1145960","Active",,,"Petra Mediterranean","680 VALENCIA ST","San Francisco","CA","POINT (-122.4219375 37.762002)","Mission","9","MISSION","2025/03/28 03:06:35 PM","2025/10/10 08:05:31 AM"
"LLP","1705","1139395","Active",,,"GYROS & TZATZIKI","3111 24TH ST","San Francisco","CA","POINT (-122.4144585 37.752255)","Mission","9","MISSION","2025/03/28 03:06:35 PM","2025/10/10 08:05:31 AM"
"FPAS","1706","1139297","Active",,,"LUXFIT SF","432 OCTAVIA ST","San Francisco","CA","POINT (-122.424246 37.776402)","Hayes Valley","5","NORTHERN","2025/03/28 03:06:35 PM","2025/10/10 08:05:31 AM"
"LLP","1707","1123713","Active",,,"2211 CLUB","2211 POLK ST","San Francisco","CA","POINT (-122.4222795 37.797093)","Russian Hill","3","NORTHERN","2025/03/28 03:06:35 PM","2025/10/10 08:05:31 AM"
"LLP","1709","1125233","Active",,,"THE CROSSING AT EAST CUT","250 MAIN ST","San Francisco","CA","POINT (-122.392962 37.789812)","Financial District/South Beach","6","SOUTHERN","2025/03/28 03:06:35 PM","2025/10/10 08:05:31 AM"
"LLP","1711","1142131","Active",,,"TALA WINE","4625 MISSION ST","San Francisco","CA","POINT (-122.434839 37.724211)","Excelsior","11","INGLESIDE","2025/03/28 03:06:35 PM","2025/10/10 08:05:31 AM"
"FPAS","1712","0424079","Active",,,"BACCHUS WINE & SAKE BAR","1954 HYDE ST","San Francisco","CA","POINT (-122.418792 37.799046)","Russian Hill","3","CENTRAL","2025/03/28 03:06:35 PM","2025/10/10 08:05:31 AM"
"LLP","1713","1144153","Active",,,"NEON","1974 UNION ST","San Francisco","CA","POINT (-122.4317835 37.797858)","Marina","2","NORTHERN","2025/03/28 03:06:35 PM","2025/10/10 08:05:31 AM"
"LLP","1714","0477746","Active",,,"ROKA AKOR","801 MONTGOMERY ST","San Francisco","CA","POINT (-122.4038565 37.796535)","Chinatown","3","CENTRAL","2025/03/28 03:06:35 PM","2025/10/10 08:05:31 AM"
"LLP","1715","1146012","Active",,,"Leon Event Hall","5051 MISSION ST","San Francisco","CA","POINT (-122.4397665 37.717695)","Excelsior","11","INGLESIDE","2025/03/28 03:06:35 PM","2025/10/10 08:05:31 AM"
"LLP","1716","1135913","Active",,,"TRINITY","1851 UNION ST","San Francisco","CA","POINT (-122.4297585 37.797534)","Marina","2","NORTHERN","2025/03/28 03:06:35 PM","2025/10/10 08:05:31 AM"
"LLP","1717","1145292","Active",,,"THE FAIGHT","475 HAIGHT ST","San Francisco","CA","POINT (-122.429889 37.771893)","Hayes Valley","5","NORTHERN","2025/03/28 03:06:35 PM","2025/10/10 08:05:31 AM"
"LLP","1718","1072288","Active",,,"WHITE CAP","3608 TARAVAL ST","San Francisco","CA","POINT (-122.504913 37.742013)","Sunset/Parkside","4","TARAVAL","2025/03/28 03:06:35 PM","2025/10/10 08:05:31 AM"
"POE","1719","1076644","Active","P23","Place of Entertainment","WASABI BISTRO GRAND HOT POT","4134 GEARY BLVD","San Francisco","CA","POINT (-122.463873 37.781352)","Inner Richmond","1","RICHMOND","2025/03/28 03:06:35 PM","2025/10/10 08:05:31 AM"
"LLP","1720","1134127","Active",,,"QUEER ARTS FEATURED","575 CASTRO ST","San Francisco","CA","POINT (-122.4345465 37.759779)","Castro/Upper Market","8","MISSION","2025/03/28 03:06:35 PM","2025/10/10 08:05:31 AM"
"POE","1721","1148112","Active","P23","Place of Entertainment","SKYLARK","3089 16TH ST","San Francisco","CA","POINT (-122.4216135 37.76472)","Mission","9","MISSION","2025/03/28 03:06:35 PM","2025/10/10 08:05:31 AM"
"LLP","1722","1114315","Active",,,"WOODS LOWER HAIGHT","530 HAIGHT ST","San Francisco","CA","POINT (-122.4310185 37.772154)","Hayes Valley","5","NORTHERN","2025/03/28 03:06:35 PM","2025/10/10 08:05:31 AM"
"POE, BP, MAD","1723","1148678","Active","P23","Place of Entertainment","LUCKY STRIKE LANES","200 KING ST","San Francisco","CA","POINT (-122.392557 37.77804)","Mission Bay","6","SOUTHERN","2025/03/28 03:06:35 PM","2025/10/10 08:05:31 AM"
"POE","1724","1149671","Active","P23","Place of Entertainment","THE STUD","1127 FOLSOM ST","San Francisco","CA","POINT (-122.408321976 37.776043987)","South of Market","6","SOUTHERN","2025/03/28 03:06:35 PM","2025/10/10 08:05:31 AM"
"LLP","1725","0357150","Active",,,"Dance Mission Theater","3316 24TH ST","San Francisco","CA","POINT (-122.418819 37.752408)","Mission","9","MISSION","2025/03/28 03:06:35 PM","2025/10/10 08:05:31 AM"
"LLP","1727","1112885","Active",,,"THE MELLOW SF","332 PINE ST","San Francisco","CA","POINT (-122.401498017 37.792329983)","Financial District/South Beach","3","CENTRAL","2025/03/28 03:06:35 PM","2025/10/10 08:05:31 AM"
"LLP","1728","0484945","Active",,,"THE WILLOWS","1582 FOLSOM ST","San Francisco","CA","POINT (-122.4151245 37.771146)","Mission","6","SOUTHERN","2025/03/28 03:06:35 PM","2025/10/10 08:05:31 AM"
"LLP","1730","1139529","Active",,,"SINOMBRE","312 HARRIET ST","San Francisco","CA","POINT (-122.4029025 37.775259)","South of Market","6","SOUTHERN","2025/03/28 03:06:35 PM","2025/10/10 08:05:31 AM"
"POE","1731","1149114","Active","P23","Place of Entertainment","Chotto Matte","100 STOCKTON ST","San Francisco","CA","POINT (-122.406309 37.78686)","Financial District/South Beach","3","TENDERLOIN","2025/05/29 03:53:02 PM","2025/10/10 08:05:31 AM"
"LLP","1732","1117257","Active",,,"THE CHECK-IN","201 OCEAN AVE","San Francisco","CA","POINT (-122.441409 37.72314)","Outer Mission","11","INGLESIDE","2025/03/28 03:06:35 PM","2025/10/10 08:05:31 AM"
"LLP","1733","1121736","Active",,,"AMERICAN BITES","478 GREEN ST","San Francisco","CA","POINT (-122.407155 37.800027)","North Beach","3","CENTRAL","2025/03/28 03:06:35 PM","2025/10/10 08:05:31 AM"
"FPAS","1734","0450593","Active",,,"ONE65","165 OFARRELL ST","San Francisco","CA","POINT (-122.407362 37.78623)","Financial District/South Beach","3","TENDERLOIN","2025/03/28 03:06:35 PM","2025/10/10 08:05:31 AM"
"LLP","1735","1154423","Active",,,"TEQUILA MOCKINGBIRD","86 2ND ST","San Francisco","CA","POINT (-122.4003015 37.788111)","Financial District/South Beach","6","SOUTHERN","2025/03/28 03:06:35 PM","2025/10/10 08:05:31 AM"
"FPAS","1736","1103531","Active",,,"LOST RESORT","2736 20TH ST","San Francisco","CA","POINT (-122.408757 37.759473)","Mission","9","MISSION","2025/03/28 03:06:35 PM","2025/10/10 08:05:31 AM"
"LLP","1738","1149586","Active",,,"WAVE COLLECTIVE","663 HAIGHT ST","San Francisco","CA","POINT (-122.4330885 37.771524)","Haight Ashbury","5","PARK","2025/03/28 03:06:35 PM","2025/10/10 08:05:31 AM"
"FPAS","1739","0945400","Active",,,"ACE WASABIS ROCK N ROLL SUSHI","3339 STEINER ST","San Francisco","CA","POINT (-122.438151 37.800171)","Marina","2","NORTHERN","2025/03/28 03:06:35 PM","2025/10/10 08:05:31 AM"
"MAD","174","0947447","Active",,,"Greens Sports Bar","2239 POLK ST","San Francisco","CA","POINT (-122.422374 37.797552)","Russian Hill","3","NORTHERN","2024/01/29 02:30:06 PM","2025/10/10 08:05:31 AM"
"FPAS","1740","0028448","Active",,,"TIA MARGARITA","300 19TH AVE","San Francisco","CA","POINT (-122.478246 37.782135)","Outer Richmond","1","RICHMOND","2025/03/28 03:06:35 PM","2025/10/10 08:05:31 AM"
"LLP","1741","0462695","Active",,,"BIERGARTEN","424 OCTAVIA ST","San Francisco","CA","POINT (-122.42412 37.776123)","Hayes Valley","5","NORTHERN","2025/03/28 03:06:35 PM","2025/10/10 08:05:31 AM"
"FPAS","1742","1112002","Active",,,"CAMPUS","2241 CHESTNUT ST","San Francisco","CA","POINT (-122.4402165 37.800036)","Marina","2","NORTHERN","2025/03/28 03:06:35 PM","2025/10/10 08:05:31 AM"
"BP, LLP","1743","0488201","Active",,,"PALM HOUSE","2032 UNION ST","San Francisco","CA","POINT (-122.432976 37.797705)","Marina","2","NORTHERN","2025/03/28 03:06:35 PM","2025/10/10 08:05:31 AM"
"LLP","1744","1149353","Active",,,"ROSEBUD GALLERY","839 LARKIN ST","San Francisco","CA","POINT (-122.418075458 37.785799799)","Tenderloin","5","NORTHERN","2025/03/28 03:06:35 PM","2025/10/10 08:05:31 AM"
"LLP","1745","1106042","Active",,,"PRUBECHU","2224 MISSION ST","San Francisco","CA","POINT (-122.419746 37.761327)","Mission","9","MISSION","2025/03/28 03:06:35 PM","2025/10/10 08:05:31 AM"
"LLP","1746","1033588","Active",,,"FLY BAR DIVISADERO","762 DIVISADERO ST","San Francisco","CA","POINT (-122.438031803 37.776511475)","Hayes Valley","5","PARK","2025/03/28 03:06:35 PM","2025/10/10 08:05:31 AM"
"POE","1747","1138144","Active","P23","Place of Entertainment","ZOE","579 HOWARD ST","San Francisco","CA","POINT (-122.3974935 37.787058)","Financial District/South Beach","6","SOUTHERN","2025/03/28 03:06:35 PM","2025/10/10 08:05:31 AM"
"LLP","1748","0465300","Active",,,"4 STAR THEATER","2200 CLEMENT ST","San Francisco","CA","POINT (-122.482944 37.78236)","Outer Richmond","1","RICHMOND","2025/03/28 03:06:35 PM","2025/10/10 08:05:31 AM"
"LLP","1750","1153005","Active",,,"SALUHALL","945 MARKET ST","San Francisco","CA","POINT (-122.4087885 37.782891)","South of Market","6","SOUTHERN","2025/03/28 03:06:35 PM","2025/10/10 08:05:31 AM"
"EHP","1751","1038712","Active",,,"HINODEYA RAMEN UNION SQUARE","219 OFARRELL ST","San Francisco","CA","POINT (-122.4083565 37.786257)","Tenderloin","3","TENDERLOIN","2025/03/28 03:06:35 PM","2025/10/10 08:05:31 AM"
"LLP","1752","1034548","Active",,,"FERMENTATION LAB","1700 POST ST","San Francisco","CA","POINT (-122.429912229 37.785585599)","Japantown","5","NORTHERN","2025/03/28 03:06:35 PM","2025/10/10 08:05:31 AM"
"POE","1753","0476136","Active","P23","Place of Entertainment","DRIFTWOOD","1225 FOLSOM ST","San Francisco","CA","POINT (-122.4103095 37.774476)","South of Market","6","SOUTHERN","2025/10/01 11:40:18 AM","2025/10/10 08:05:31 AM"
"LLP","1754","1120110","Active",,,"KALW PUBLIC MEDIA, INC.","220 MONTGOMERY ST","San Francisco","CA","POINT (-122.402007 37.791324)","Financial District/South Beach","3","CENTRAL","2025/03/28 03:06:35 PM","2025/10/10 08:05:31 AM"
"POE","1756","1151616","Active","P23","Place of Entertainment","THE THIRD FLOOR","333 BATTERY ST","San Francisco","CA","POINT (-122.4006885 37.794708)","Chinatown","3","CENTRAL","2025/03/28 03:06:35 PM","2025/10/10 08:05:31 AM"
"LLP","1757","0302173","Active",,,"FLANAHAN'S PUB","3805 NORIEGA ST","San Francisco","CA","POINT (-122.504598 37.752777)","Sunset/Parkside","4","TARAVAL","2025/03/28 03:06:35 PM","2025/10/10 08:05:31 AM"
"LLP","1758","0953541","Active",,,"SAN FRANCISCO GAY MEN'S CHORUS","170 VALENCIA ST","San Francisco","CA","POINT (-122.42286 37.770435)","Mission","8","SOUTHERN","2025/03/28 03:06:35 PM","2025/10/10 08:05:31 AM"
"POE","1759","1145849","Active","P23","Place of Entertainment","XIAN BISTRO","2543 NORIEGA ST","San Francisco","CA","POINT (-122.4910575 37.753326)","Sunset/Parkside","4","TARAVAL","2025/03/28 03:06:35 PM","2025/10/10 08:05:31 AM"
"LLP, BP","1760","1151160","Active",,,"SULLY'S MARINA LOUNGE","2138 CHESTNUT ST","San Francisco","CA","POINT (-122.4386955 37.800729)","Marina","2","NORTHERN","2025/03/28 03:06:35 PM","2025/10/10 08:05:31 AM"
"POE","1762","1023380","Active","P23","Place of Entertainment","LOS YAQUIS","324 SOUTH VAN NESS AVE","San Francisco","CA","POINT (-122.4180585 37.767906)","Mission","9","MISSION","2025/03/28 03:06:35 PM","2025/10/10 08:05:31 AM"
"LLP","1763","0920976","Active",,,"MOSCONE CENTER","800 HOWARD ST","San Francisco","CA","POINT (-122.4032985 37.78326)","South of Market","6","SOUTHERN","2025/03/28 03:06:35 PM","2025/10/10 08:05:31 AM"
"BP, MAD, POE","1764","1154440","Active","P23","Place of Entertainment","ROUND1 BOWLING & ARCADE","285 WINSTON DR","San Francisco","CA","POINT (-122.477553 37.726533)","Lakeshore","7","TARAVAL","2025/03/28 03:06:35 PM","2025/10/10 08:05:31 AM"
"POE","1765","1154474","Active","P23","Place of Entertainment","DECODANCE","1160 POLK ST","San Francisco","CA","POINT (-122.4197235 37.787544)","Nob Hill","3","NORTHERN","2025/03/28 03:06:35 PM","2025/10/10 08:05:31 AM"
"POE","1766","1154453","Active","P23","Place of Entertainment","LEGACY NORTH BEACH BAR","1326 GRANT AVE","San Francisco","CA","POINT (-122.4070605 37.7991)","North Beach","3","CENTRAL","2025/03/28 03:06:35 PM","2025/10/10 08:05:31 AM"
"LLP","1767","1146873","Active",,,"THE HALFWAY CLUB","1166 GENEVA AVE","San Francisco","CA","POINT (-122.4370125 37.714266)","Excelsior","11","INGLESIDE","2025/03/28 03:06:35 PM","2025/10/10 08:05:31 AM"
"LLP","1768","0336094","Active",,,"SWEETIES","475 FRANCISCO ST","San Francisco","CA","POINT (-122.41287 37.804518)","North Beach","3","CENTRAL","2025/03/28 03:06:35 PM","2025/10/10 08:05:31 AM"
"LLP","1769","1027120","Active",,,"KAORI RAMEN BAR","3128 16TH ST","San Francisco","CA","POINT (-122.422626 37.765134)","Mission","9","MISSION","2025/03/28 03:06:35 PM","2025/10/10 08:05:31 AM"
"LLP","1770","0419041","Active",,,"EPIC ROASTHOUSE","369 THE EMBARCADERO","San Francisco","CA","POINT (-122.389398 37.790829)","Financial District/South Beach","6","SOUTHERN","2025/03/28 03:06:35 PM","2025/10/10 08:05:31 AM"
"LLP","1773","0025258","Active",,,"SCOMA'S RESTAURANT","1965 AL SCOMA WAY","San Francisco","CA","POINT (-122.418927 37.809045)","North Beach","3","CENTRAL","2025/03/28 03:06:35 PM","2025/10/10 08:05:31 AM"
"POE","1774","1151888","Active","P23","Place of Entertainment","THE PARTHENON","582 SUTTER ST","San Francisco","CA","POINT (-122.409846 37.789182)","Nob Hill","3","CENTRAL","2025/03/28 03:06:35 PM","2025/10/10 08:05:31 AM"
"LLP","1775","0456551","Active",,,"SOUTHERN PACIFIC BREWING","620 TREAT AVE","San Francisco","CA","POINT (-122.41413 37.760112)","Mission","9","MISSION","2025/03/28 03:06:35 PM","2025/10/10 08:05:31 AM"
"POE","1776","1147352","Active","P23","Place of Entertainment","PANAME SF","523 BROADWAY","San Francisco","CA","POINT (-122.405877 37.79775)","North Beach","3","CENTRAL","2025/03/28 03:06:35 PM","2025/10/10 08:05:31 AM"
"LLP","1777","0377308","Active",,,"THE PAGE","298 DIVISADERO ST","San Francisco","CA","POINT (-122.4369045 37.772127)","Haight Ashbury","5","PARK","2025/03/28 03:06:35 PM","2025/10/10 08:05:31 AM"
"LLP","1778","0396004","Active",,,"SIMPLE PLEASURES CAFE","3434 BALBOA ST","San Francisco","CA","POINT (-122.4958275 37.776033)","Outer Richmond","1","RICHMOND","2025/03/28 03:06:35 PM","2025/10/10 08:05:31 AM"
"POE","1779","1106982","Active","P23","Place of Entertainment","MODI RESTAURANT & BAR","425 MISSION ST","San Francisco","CA","POINT (-122.3963145 37.789749)","Financial District/South Beach","6","SOUTHERN","2025/03/28 03:06:35 PM","2025/10/10 08:05:31 AM"
"POE","178","0168264","Active","P23","Place of Entertainment","CALIFORNIA CLUB OF CALIFORNIA","1750 CLAY ST","San Francisco","CA","POINT (-122.421942 37.792422)","Russian Hill","3","NORTHERN","2024/01/29 02:30:06 PM","2025/10/10 08:05:31 AM"
"FPAS","1780","0484721","Active",,,"CAUSWELLS","2346 CHESTNUT ST","San Francisco","CA","POINT (-122.4419805 37.800378)","Marina","2","NORTHERN","2025/03/28 03:06:35 PM","2025/10/10 08:05:31 AM"
"LLP","1781","1075401","Active",,,"BARBARA PINSERIA & COCKTAIL BAR","431 COLUMBUS AVE","San Francisco","CA","POINT (-122.408568 37.798884)","Chinatown","3","CENTRAL","2025/03/28 03:06:35 PM","2025/10/10 08:05:31 AM"
"POE","1782","1156104","Active","P23","Place of Entertainment","BADLANDS SAN FRANCISCO","4121 18TH ST","San Francisco","CA","POINT (-122.4354915 37.76067)","Castro/Upper Market","8","MISSION","2025/05/07 10:31:03 AM","2025/10/10 08:05:31 AM"
"POE","1783","1154120","Active","P23","Place of Entertainment","1217 Lounge","1217 SUTTER ST","San Francisco","CA","POINT (-122.4204795 37.787445)","Nob Hill","3","NORTHERN","2025/03/28 03:06:35 PM","2025/10/10 08:05:31 AM"
"LLP","1784","0376995","Active",,,"Friends of Lakeside Village","2504 OCEAN AVE","San Francisco","CA","POINT (-122.472292479 37.731295553)","West of Twin Peaks","7","TARAVAL","2025/03/28 03:06:35 PM","2025/10/10 08:05:31 AM"
"FPAS","1786","1157163","Active",,,"PAGE STREET FIT","1235 FELL ST","San Francisco","CA","POINT (-122.438412 37.773684)","Hayes Valley","5","PARK","2025/03/28 03:06:35 PM","2025/10/10 08:05:31 AM"
"POE, EHP","1787","1153869","Active","P23","Place of Entertainment","REVERB","2801 LEAVENWORTH ST","San Francisco","CA","POINT (-122.418972811 37.806952063)","Russian Hill","3","CENTRAL","2025/03/28 03:06:35 PM","2025/10/10 08:05:31 AM"
"MAD","1788","1114569","Active",,,"WOW KIDS PLAYGROUND","1650 POLK ST","San Francisco","CA","POINT (-122.4207315 37.792215)","Nob Hill","3","NORTHERN","2025/03/28 03:06:35 PM","2025/10/10 08:05:31 AM"
"POE, EHP","1789","1170312","Active","P23","Place of Entertainment","7 SOCIAL","65 POST ST","San Francisco","CA","POINT (-122.4030465 37.78875)","Financial District/South Beach","3","CENTRAL","2025/05/29 08:48:09 PM","2025/10/10 08:05:31 AM"
"LLP","1792","0489153","Active",,,"PAPRIKA","3324 24TH ST","San Francisco","CA","POINT (-122.4191115 37.752363)","Mission","9","MISSION","2025/03/28 03:06:35 PM","2025/10/10 08:05:31 AM"
"EHP","1793","0378507","Active",,,"Big Baobab","2243 MISSION ST","San Francisco","CA","POINT (-122.419089 37.76112)","Mission","9","MISSION","2025/03/28 03:06:35 PM","2025/10/10 08:05:31 AM"
"POE","1794","1150390","Active","P23","Place of Entertainment","ZHUZH BAR","1548 CALIFORNIA ST","San Francisco","CA","POINT (-122.4198135 37.791036)","Nob Hill","3","NORTHERN","2025/04/01 01:37:03 PM","2025/10/10 08:05:31 AM"
"LLP","1795","1154082","Active",,,"THE FUNCTION","1414 MARKET ST","San Francisco","CA","POINT (-122.4182295 37.776339)","Tenderloin","6","NORTHERN","2025/03/28 03:06:35 PM","2025/10/10 08:05:31 AM"
"POE","1796","1122896","Active","P23","Place of Entertainment","BEACON GRAND","450 POWELL ST","San Francisco","CA","POINT (-122.408388 37.788858)","Financial District/South Beach","3","CENTRAL","2025/03/28 03:06:35 PM","2025/10/10 08:05:31 AM"
"LLP","1797","1117942","Active",,,"AURORA CENTRO","415 MISSION ST","San Francisco","CA","POINT (-122.397111 37.789938)","Financial District/South Beach","6","SOUTHERN","2025/03/28 03:06:35 PM","2025/10/10 08:05:31 AM"
"LLP","1798","1099378","Active",,,"DONAJI","3161 24TH ST","San Francisco","CA","POINT (-122.41548 37.752201)","Mission","9","MISSION","2025/03/28 03:06:35 PM","2025/10/10 08:05:31 AM"
"POE, EHP","1799","1157881","Active","P23","Place of Entertainment","MR. MAHJONG'S","260 KEARNY ST","San Francisco","CA","POINT (-122.403762 37.790604)","Financial District/South Beach","3","CENTRAL","2025/04/23 01:31:06 PM","2025/10/10 08:05:31 AM"
"LLP","1800","1132898","Active",,,"AMOR DIGITAL","5137 MISSION ST","San Francisco","CA","POINT (-122.440608 37.716561)","Excelsior","11","INGLESIDE","2025/03/28 03:06:35 PM","2025/10/10 08:05:31 AM"
"MAD","1801","1155282","Active",,,"BIBBITI","1533 TARAVAL ST","San Francisco","CA","POINT (-122.4826965 37.742625)","Sunset/Parkside","4","TARAVAL","2025/03/28 03:06:35 PM","2025/10/10 08:05:31 AM"
"FPAS","1802","1079298","Active",,,"LOKMA","1801 CLEMENT ST","San Francisco","CA","POINT (-122.478687 37.782162)","Outer Richmond","1","RICHMOND","2025/03/28 03:06:35 PM","2025/10/10 08:05:31 AM"
"LLP","1803","1144918","Active",,,"DACHA","1085 SUTTER ST","San Francisco","CA","POINT (-122.41818 37.787724)","Nob Hill","3","CENTRAL","2025/03/28 03:06:35 PM","2025/10/10 08:05:31 AM"
"LLP","1804","1161897","Active",,,"MINNIE BELL'S SOUL MOVEMENT","1375 FILLMORE ST","San Francisco","CA","POINT (-122.4327195 37.782072)","Western Addition","5","NORTHERN","2025/03/28 03:06:35 PM","2025/10/10 08:05:31 AM"
"FPAS, BP","1805","1155454","Active",,,"Darling SF LLC","2263 CHESTNUT ST","San Francisco","CA","POINT (-122.4404595 37.799973)","Marina","2","NORTHERN","2025/03/28 03:06:35 PM","2025/10/10 08:05:31 AM"
"POE","1806","1152708","Active","P23","Place of Entertainment","APRIL JEAN","1371 GRANT AVE","San Francisco","CA","POINT (-122.407515 37.79955)","North Beach","3","CENTRAL","2025/03/28 03:06:35 PM","2025/10/10 08:05:31 AM"
"POE","1807","1160416","Active","P23","Place of Entertainment","SF BEVERAGE & DISTILLING CO","100 HOOPER ST","San Francisco","CA","POINT (-122.3986005 37.768977)","Mission Bay","6","BAYVIEW","2025/03/28 03:06:35 PM","2025/10/10 08:05:31 AM"
"POE","1808","1060205","Active","P23","Place of Entertainment","ENDGAMES IMPROV, LLC","2989 MISSION ST","San Francisco","CA","POINT (-122.4178425 37.74942)","Mission","9","MISSION","2025/05/15 10:36:20 AM","2025/10/10 08:05:31 AM"
"LLP","1809","1149670","Active",,,"TEETH BAR SF","2323 MISSION ST","San Francisco","CA","POINT (-122.418828 37.759869)","Mission","9","MISSION","2025/03/28 03:06:35 PM","2025/10/10 08:05:31 AM"
"POE, BP","1810","1160141","Active","P23","Place of Entertainment","The Temple Bar SF","834 IRVING ST","San Francisco","CA","POINT (-122.46705 37.764261)","Inner Sunset","7","TARAVAL","2025/03/28 03:06:35 PM","2025/10/10 08:05:31 AM"
"FPAS","1813","1067605","Active",,,"A MANO","450 HAYES ST","San Francisco","CA","POINT (-122.423776616 37.776813902)","Hayes Valley","5","NORTHERN","2025/03/28 03:06:35 PM","2025/10/10 08:05:31 AM"
"MAD","1815","1151552","Active",,,"KIDDLETON - Post St","1737 POST ST","San Francisco","CA","POINT (-122.430564 37.785168)","Japantown","5","NORTHERN","2025/05/07 01:45:33 PM","2025/10/10 08:05:31 AM"
"MAD","1816","1151552","Active",,,"KIDDLETON - Webster St","1581 WEBSTER ST","San Francisco","CA","POINT (-122.4318645 37.784979)","Japantown","5","NORTHERN","2025/05/07 01:46:36 PM","2025/10/10 08:05:31 AM"
"LLP","1817","1075208","Active",,,"HOWELLS","2373 CHESTNUT ST","San Francisco","CA","POINT (-122.4423315 37.799802)","Marina","2","NORTHERN","2025/03/28 03:06:35 PM","2025/10/10 08:05:31 AM"
"POE","1819","1161674","Active","P23","Place of Entertainment","SOUNDTRACK","3192 16TH ST","San Francisco","CA","POINT (-122.4238275 37.765026)","Mission","9","MISSION","2025/03/28 03:06:35 PM","2025/10/10 08:05:31 AM"
"LLP","1820","1161530","Active",,,"Magnolia Brewing Company","1398 HAIGHT ST","San Francisco","CA","POINT (-122.445253105 37.770259937)","Haight Ashbury","5","PARK","2025/03/28 03:06:35 PM","2025/10/10 08:05:31 AM"
"POE","1821","1147564","Active","P23","Place of Entertainment","BESO MAE COCKTAIL LOUNGE","1121 POLK ST","San Francisco","CA","POINT (-122.4202275 37.787049)","Nob Hill","3","NORTHERN","2025/03/28 03:06:35 PM","2025/10/10 08:05:31 AM"
"LLP","1824","1126629","Active",,,"SHUGGIES MISSION","3349 23RD ST","San Francisco","CA","POINT (-122.4194895 37.753659)","Mission","9","MISSION","2025/03/28 03:06:35 PM","2025/10/10 08:05:31 AM"
"LLP","1825","1067407","Active",,,"THE ACADEMY SF","2166 MARKET ST","San Francisco","CA","POINT (-122.430390018 37.76672901)","Castro/Upper Market","8","NORTHERN","2025/03/28 03:06:35 PM","2025/10/10 08:05:31 AM"
"LLP","1826","0459967","Active",,,"RED'S PLACE","672 JACKSON ST","San Francisco","CA","POINT (-122.4065295 37.796211)","Chinatown","3","CENTRAL","2025/03/28 03:06:35 PM","2025/10/10 08:05:31 AM"
"POE","1827","1103872","Active","P23","Place of Entertainment","CASEMENTS","2351 MISSION ST","San Francisco","CA","POINT (-122.418558 37.759248)","Mission","9","MISSION","2025/03/28 03:06:35 PM","2025/10/10 08:05:31 AM"
"LLP","1829","1128204","Active",,,"EL CHATO","2301 BRYANT ST","San Francisco","CA","POINT (-122.409315 37.757484)","Mission","9","MISSION","2025/03/28 03:06:35 PM","2025/10/10 08:05:31 AM"
"LLP","1830","1117942","Active",,,"STUDIO AURORA","302 VALENCIA ST","San Francisco","CA","POINT (-122.4224955 37.767861)","Mission","9","MISSION","2025/03/28 03:06:35 PM","2025/10/10 08:05:31 AM"
"LLP","1831","1141482","Active",,,"ROYAL GROUND COFFEE","2216 POLK ST","San Francisco","CA","POINT (-122.4217485 37.797165)","Russian Hill","3","NORTHERN","2025/03/28 03:06:35 PM","2025/10/10 08:05:31 AM"
"POE","1833","1157507","Active","P23","Place of Entertainment","H&K PENINSULA LLC","3565 GEARY BLVD","San Francisco","CA","POINT (-122.457393 37.780974)","Lone Mountain/USF","2","RICHMOND","2025/10/01 11:33:12 AM","2025/10/10 08:05:31 AM"
"LLP","1834","1163365","Active",,,"SPLASH AT THRIVE CITY","191 WARRIORS WAY","San Francisco","CA","POINT (-122.387643 37.768005)","Mission Bay","6","BAYVIEW","2025/03/28 03:06:35 PM","2025/10/10 08:05:31 AM"
"LLP","1835","0341117","Active",,,"BAMBOO RESTAURANT","1441 POLK ST","San Francisco","CA","POINT (-122.42088 37.7901)","Nob Hill","3","NORTHERN","2025/03/28 03:06:35 PM","2025/10/10 08:05:31 AM"
"LLP","1836","0424941","Active",,,"SAN FRANCISCO HI-LO CLUB","1423 POLK ST","San Francisco","CA","POINT (-122.4208395 37.789929)","Nob Hill","3","NORTHERN","2025/03/28 03:06:35 PM","2025/10/10 08:05:31 AM"
"POE","1837","1159965","Active","P23","Place of Entertainment","Phonobar","370 GROVE ST","San Francisco","CA","POINT (-122.422536 37.778184)","Hayes Valley","5","NORTHERN","2025/03/28 03:06:35 PM","2025/10/10 08:05:31 AM"
"BP","1838","1165253","Active",,,"HUIQUN BILLIARD PARLOR","931 KEARNY ST","San Francisco","CA","POINT (-122.4053955 37.796445)","Chinatown","3","CENTRAL","2025/03/28 03:06:35 PM","2025/10/10 08:05:31 AM"
"LLP","1839","1151808","Active",,,"OTHERWISE BREWING","1402 GRANT AVE","San Francisco","CA","POINT (-122.407155 37.800027)","North Beach","3","CENTRAL","2025/04/02 11:24:36 AM","2025/10/10 08:05:31 AM"
"LLP","1840","1148146","Active",,,"ENSENADA RESTAURANT","4448 MISSION ST","San Francisco","CA","POINT (-122.43375 37.726569)","Outer Mission","11","INGLESIDE","2025/04/17 01:52:51 PM","2025/10/10 08:05:31 AM"
"BP","1841","0474382","Active",,,"BARBARY COAST","952 MISSION ST","San Francisco","CA","POINT (-122.4078705 37.782063)","South of Market","6","SOUTHERN","2025/03/28 03:06:35 PM","2025/10/10 08:05:31 AM"
"POE","1842","1164702","Active","P23","Place of Entertainment","GOEMON IZAKAYA KARAOKE BAR AND LOUNGE","3141 CLEMENT ST","San Francisco","CA","POINT (-122.49307098 37.781399017)","Outer Richmond","1","RICHMOND","2025/05/28 02:13:22 PM","2025/10/10 08:05:31 AM"
"FPAS","1843","0416455","Active",,,"IRISH BANK BAR & RESTAURANT","10 MARK LN","San Francisco","CA","POINT (-122.404671 37.79037)","Financial District/South Beach","3","CENTRAL","2025/04/02 11:22:02 AM","2025/10/10 08:05:31 AM"
"POE","1844","1133134","Active","P23","Place of Entertainment","BODEGA SF & THE FELIX","138 MASON ST","San Francisco","CA","POINT (-122.409365787 37.784741585)","Tenderloin","3","TENDERLOIN","2025/10/01 11:30:57 AM","2025/10/10 08:05:31 AM"
"LLP, BP","1845","1163692","Active",,,"KIITOS","200 CAPP ST","San Francisco","CA","POINT (-122.418576 37.763253)","Mission","9","MISSION","2025/05/07 01:56:10 PM","2025/10/10 08:05:31 AM"
"LLP","1846","0458413","Active",,,"TENDERLOIN MUSEUM ANNEX","835 LARKIN ST","San Francisco","CA","POINT (-122.4183015 37.785825)","Tenderloin","5","NORTHERN","2025/04/17 01:54:07 PM","2025/10/10 08:05:31 AM"
"LLP","1847","0470187","Active",,,"HI TOPS","2247 MARKET ST","San Francisco","CA","POINT (-122.431698 37.764891)","Castro/Upper Market","8","MISSION","2025/05/07 01:52:55 PM","2025/10/10 08:05:31 AM"
"LLP","1848","1119766","Active",,,"Afterwork Bar / 409 GOUGH STREET, LLC","409 GOUGH ST","San Francisco","CA","POINT (-122.423184 37.777122)","Hayes Valley","5","NORTHERN","2025/05/07 01:51:23 PM","2025/10/10 08:05:31 AM"
"LLP","1849","1162194","Active",,,"1945 RESTAURANT BAR & LOUNGE","5 LELAND AVE","San Francisco","CA","POINT (-122.4040545 37.711089)","Visitacion Valley","10","INGLESIDE","2025/06/04 01:54:04 PM","2025/10/10 08:05:31 AM"
"LLP","1850","1100569","Active",,,"MASTRO'S","399 GEARY ST","San Francisco","CA","POINT (-122.4096795 37.786968)","Tenderloin","3","TENDERLOIN","2025/05/07 01:48:40 PM","2025/10/10 08:05:31 AM"
"POE, EHP","1851","1168711","Active","P23","Place of Entertainment","THE CAFE","2369 MARKET ST","San Francisco","CA","POINT (-122.4343665 37.762848)","Castro/Upper Market","8","MISSION","2025/07/30 01:21:42 PM","2025/10/10 08:05:31 AM"
"FPAS","1852","0438574","Active",,,"BOUCHE","603 BUSH ST","San Francisco","CA","POINT (-122.4073395 37.790235)","Financial District/South Beach","3","CENTRAL","2025/05/22 02:38:30 PM","2025/10/10 08:05:31 AM"
"LLP","1853","1157668","Active",,,"GALINETTE","3560 TARAVAL ST","San Francisco","CA","POINT (-122.5044765 37.74204)","Sunset/Parkside","4","TARAVAL","2025/05/22 02:37:08 PM","2025/10/10 08:05:31 AM"
"LLP","1854","1160862","Active",,,"PUPUSERIA METAPAN 2","2778 24TH ST","San Francisco","CA","POINT (-122.407821 37.75311)","Mission","9","MISSION","2025/05/22 02:35:42 PM","2025/10/10 08:05:31 AM"
"FPAS","1855","1120513","Active",,,"Restaurant Nisei","2316 POLK ST","San Francisco","CA","POINT (-122.4219825 37.798146)","Russian Hill","3","NORTHERN","2025/06/04 01:57:27 PM","2025/10/10 08:05:31 AM"
"LLP","1856","1066288","Active",,,"True Laurel","753 ALABAMA ST","San Francisco","CA","POINT (-122.4112995 37.75932)","Mission","9","MISSION","2025/06/04 02:01:03 PM","2025/10/10 08:05:31 AM"
"LLP","1857","1118617","Active",,,"The Transamerica Redwood Park","600 MONTGOMERY ST","San Francisco","CA","POINT (-122.402745 37.795158)","Chinatown","3","CENTRAL","2025/08/05 02:27:26 PM","2025/10/10 08:05:31 AM"
"LLP","1858","1164356","Active",,,"SIDE A","2814 19TH ST","San Francisco","CA","POINT (-122.410332 37.76058)","Mission","9","MISSION","2025/07/18 11:00:40 AM","2025/10/10 08:05:31 AM"
"EHP, POE, BP","1859","1169223","Active","P23","Place of Entertainment","201 BODEGA NIGHT CLUB","201 9TH ST","San Francisco","CA","POINT (-122.4128295 37.775043)","South of Market","6","SOUTHERN","2025/07/18 10:57:02 AM","2025/10/10 08:05:31 AM"
"POE, EHP","1860","1162988","Active","P23","Place of Entertainment","THE MEDIA ROOM","582 MARKET ST","San Francisco","CA","POINT (-122.4016245 37.789533)","Financial District/South Beach","3","CENTRAL","2025/08/05 02:29:30 PM","2025/10/10 08:05:31 AM"
"POE, EHP","1862","1165371","Active","P23","Place of Entertainment","Castle SF","550 15TH ST","San Francisco","CA","POINT (-122.406228 37.76742)","Mission","6","MISSION","2025/08/14 03:12:59 PM","2025/10/10 08:05:31 AM"
"LLP","1863","0351816","Active",,,"RISTORANTE TI PIACERA","1507 POLK ST","San Francisco","CA","POINT (-122.4208755 37.790739)","Nob Hill","3","NORTHERN","2025/07/18 10:56:55 AM","2025/10/10 08:05:31 AM"
"POE","1864","1166556","Active","P23","Place of Entertainment","THE FOLD LLC","3359 26TH ST","San Francisco","CA","POINT (-122.4172665 37.748844)","Mission","9","MISSION","2025/08/21 08:50:45 PM","2025/10/10 08:05:31 AM"
"LLP","1865","1165320","Active",,,"FIFTY VARA LLC","1735 NORIEGA ST","San Francisco","CA","POINT (-122.482395 37.753731)","Sunset/Parkside","4","TARAVAL","2025/07/18 10:59:35 AM","2025/10/10 08:05:31 AM"
"LLP","1866","1100638","Active",,,"SABROSA / ROCKWELL","3200 FILLMORE ST","San Francisco","CA","POINT (-122.435703 37.799163)","Marina","2","NORTHERN","2025/08/08 09:39:33 AM","2025/10/10 08:05:31 AM"
"LLP","1867","1171086","Active",,,"MUDDY WATERS COFFEE & LOUNGE","521 VALENCIA ST","San Francisco","CA","POINT (-122.4215955 37.764513)","Mission","9","MISSION","2025/08/08 09:39:34 AM","2025/10/10 08:05:31 AM"
"LLP","1868","1164116","Active",,,"INDIGO","3321 STEINER ST","San Francisco","CA","POINT (-122.4380745 37.800027)","Marina","2","NORTHERN","2025/08/08 09:39:32 AM","2025/10/10 08:05:31 AM"
"POE","1869","1167512","Active","P23","Place of Entertainment","XEX","1131 POLK ST","San Francisco","CA","POINT (-122.420313 37.787472)","Nob Hill","3","NORTHERN","2025/08/18 11:28:50 AM","2025/10/10 08:05:31 AM"
"LLP","1870","1089492","Active",,,"CULTURA Y ARTE NATIVA DE LAS AMERICAS (CANA)","683 FLORIDA ST","San Francisco","CA","POINT (-122.4108585 37.76085)","Mission","9","MISSION","2025/09/23 12:57:00 PM","2025/10/10 08:05:31 AM"
"LLP","1871","1155476","Active",,,"S & E CAFE","2406 19TH AVE","San Francisco","CA","POINT (-122.475294 37.742859)","West of Twin Peaks","7","TARAVAL","2025/08/08 09:39:35 AM","2025/10/10 08:05:31 AM"
"LLP","1872","0478935","Active",,,"ANINA","482 HAYES ST","San Francisco","CA","POINT (-122.424363 37.776924)","Hayes Valley","5","NORTHERN","2025/09/23 12:51:14 PM","2025/10/10 08:05:31 AM"
"LLP","1873","0478935","Active",,,"BRASS TACKS",,"San Francisco","CA",,,,,"2025/09/23 12:52:10 PM","2025/10/10 08:05:31 AM"
"POE, BP","1874","1158073","Active","P23","Place of Entertainment","EL TREBOL SPORTS BAR #2","2919 16TH ST","San Francisco","CA","POINT (-122.4179235 37.764936)","Mission","9","MISSION","2025/09/23 12:46:52 PM","2025/10/10 08:05:31 AM"
"LLP","1875","0936732","Active",,,"PLAYA AZUL SEA FOOD REST & BAR","3318 MISSION ST","San Francisco","CA","POINT (-122.421465 37.743705)","Bernal Heights","9","INGLESIDE","2025/09/23 12:53:12 PM","2025/10/10 08:05:31 AM"
"LLP","1876","0455255","Active",,,"DUNYA BISTRO","1609 POLK ST","San Francisco","CA","POINT (-122.421132 37.791666)","Nob Hill","3","NORTHERN","2025/09/23 12:54:54 PM","2025/10/10 08:05:31 AM"
"LLP","1877","1099961","Active",,,"BLIND BUTCHER","4058A 18TH ST","San Francisco","CA","POINT (-122.4341685 37.761165)","Castro/Upper Market","8","MISSION","2025/09/23 12:55:54 PM","2025/10/10 08:05:31 AM"
"LLP","1878","1108577","Active",,,"THE LIBERTIES BAR AND RESTAURANT","998 GUERRERO ST","San Francisco","CA","POINT (-122.423553 37.755288)","Mission","8","MISSION","2025/09/23 12:50:07 PM","2025/10/10 08:05:31 AM"
"LLP","1879","0341342","Active",,,"RADIO HABANA CAFFE","1109 VALENCIA ST","San Francisco","CA","POINT (-122.420664 37.755162)","Mission","9","MISSION","2025/09/23 12:48:42 PM","2025/10/10 08:05:31 AM"
"BP","1881","1168454","Active",,,"THE HALL LLC","2565 MISSION ST","San Francisco","CA","POINT (-122.418468 37.756098)","Mission","9","MISSION","2025/08/05 02:29:44 PM","2025/10/10 08:05:31 AM"
"POE","1882","1171099","Active","P23","Place of Entertainment","SABOR GAUCHO","1500 BROADWAY","San Francisco","CA","POINT (-122.4221355 37.796211)","Russian Hill","3","NORTHERN","2025/09/26 03:33:24 PM","2025/10/10 08:05:31 AM"
"LLP","1883","1154036","Active",,,"Chac Mool Sports Bar Y Botanas","2199 MISSION ST","San Francisco","CA","POINT (-122.41908 37.762011)","Mission","9","MISSION","2025/09/23 12:46:52 PM","2025/10/10 08:05:31 AM"
"LLP, BP","1884","1166813","Active",,,"EL TREBOL SPORT BAR #2 & RESTAURANT","3088 24TH ST","San Francisco","CA","POINT (-122.413824 37.752642)","Mission","9","MISSION","2025/09/23 12:44:57 PM","2025/10/10 08:05:31 AM"
"LLP","1885","1152012","Active",,,"WOULD YOU BELIEVE","4652 GEARY BLVD","San Francisco","CA","POINT (-122.4694845 37.781055)","Inner Richmond","1","RICHMOND","2025/09/23 12:43:08 PM","2025/10/10 08:05:31 AM"
"LLP","1887","1161028","Active",,,"UNCLE PAUL'S CERAMICS NORTH BEACH","493 BROADWAY","San Francisco","CA","POINT (-122.405238 37.797876)","North Beach","3","CENTRAL","2025/09/23 12:42:19 PM","2025/10/10 08:05:31 AM"
"LLP","1888","1145765","Active",,,"YORK STREET COLLECTIVE","1100 VALENCIA ST","San Francisco","CA","POINT (-122.421222 37.75518)","Mission","9","MISSION","2025/09/25 12:57:44 PM","2025/10/10 08:05:31 AM"
"POE","1890","1161722","Active","P23","Place of Entertainment","LONG WEEKEND BAR","270 COLUMBUS AVE","San Francisco","CA","POINT (-122.406264 37.797759)","North Beach","3","CENTRAL","2025/09/23 12:40:42 PM","2025/10/10 08:05:31 AM"
"POE","1892","1159703","Active","P23","Place of Entertainment","BAR-BEES","4541 MISSION ST","San Francisco","CA","POINT (-122.4338895 37.725462)","Excelsior","11","INGLESIDE","2025/10/09 10:30:41 AM","2025/10/10 08:05:31 AM"
"BP","1893","1173337","Active",,,"THE BALLROOM","1349 MISSION ST","San Francisco","CA","POINT (-122.41521 37.775502)","South of Market","6","SOUTHERN","2025/09/25 01:53:32 PM","2025/10/10 08:05:31 AM"
"LLP","1894","1132853","Active",,,"PIGLET & CO.","2170 MISSION ST","San Francisco","CA","POINT (-122.4197055 37.762317)","Mission","9","MISSION","2025/10/09 10:32:21 AM","2025/10/10 08:05:31 AM"
"BP","196","0320879","Active",,,"Mission Street Bar","2695 MISSION ST","San Francisco","CA","POINT (-122.418261 37.754001)","Mission","9","MISSION","2024/01/29 02:30:06 PM","2025/10/10 08:05:31 AM"
"POE","201","0361720","Active","P23","Place of Entertainment","RICKSHAW STOP","155 FELL ST","San Francisco","CA","POINT (-122.420475 37.775988)","Hayes Valley","6","NORTHERN","2024/01/29 02:30:06 PM","2025/10/10 08:05:31 AM"
"POE","204","0329590","Active","P23","Place of Entertainment","Vanity Nightclub","412 BROADWAY","San Francisco","CA","POINT (-122.404141001 37.79821921)","North Beach","3","CENTRAL","2024/01/29 02:30:06 PM","2025/10/10 08:05:31 AM"
"POE, BP","209","0428302","Active","P23","Place of Entertainment","O'Reilly's Pub (fka GALAXY CLUB - Milk Bar)","1840 HAIGHT ST","San Francisco","CA","POINT (-122.452605 37.769517)","Haight Ashbury","5","PARK","2025/07/29 01:36:33 PM","2025/10/10 08:05:31 AM"
"POE","215","0391042","Active","P23","Place of Entertainment","MISSION CULTURAL CENTER","2868 MISSION ST","San Francisco","CA","POINT (-122.418513 37.751022)","Mission","9","MISSION","2024/01/29 02:30:06 PM","2025/10/10 08:05:31 AM"
"POE","216","0935434","Active","P23","Place of Entertainment","IL Pirata Restaurant","2007 16TH ST","San Francisco","CA","POINT (-122.406858 37.765647)","Mission","10","MISSION","2024/01/29 02:30:06 PM","2025/10/10 08:05:31 AM"
"POE","218","0003188","Active","P23","Place of Entertainment","Bimbo's 365 Club","1025 COLUMBUS AVE","San Francisco","CA","POINT (-122.415678 37.803708)","Russian Hill","3","CENTRAL","2024/01/29 02:30:06 PM","2025/10/10 08:05:31 AM"
"POE","227","1040645","Active","P23","Place of Entertainment","The Polish Club Inc","3040 22ND ST","San Francisco","CA","POINT (-122.415219 37.755855)","Mission","9","MISSION","2025/09/26 01:48:32 PM","2025/10/10 08:05:31 AM"
"POE","232","0326990","Active","P23","Place of Entertainment","SF Marriott Hotel / The View","55 4TH ST","San Francisco","CA","POINT (-122.4044055 37.785402)","Financial District/South Beach","6","SOUTHERN","2024/01/29 02:30:06 PM","2025/10/10 08:05:31 AM"
"POE","243","0312891","Active","P23","Place of Entertainment","Johnny Foley's Irish House","243 OFARRELL ST","San Francisco","CA","POINT (-122.4086715 37.786086)","Tenderloin","3","TENDERLOIN","2024/01/29 02:30:06 PM","2025/10/10 08:05:31 AM"
"POE","248","0488301","Active","P23","Place of Entertainment","Bay Area Longshoremen's","400 BEACH ST","San Francisco","CA","POINT (-122.415988729 37.807302184)","North Beach","3","CENTRAL","2024/01/29 02:30:06 PM","2025/10/10 08:05:31 AM"
"POE","262","0316872","Active","P23","Place of Entertainment","CAFE CLAUDE","7 CLAUDE LN","San Francisco","CA","POINT (-122.4044055 37.789992)","Financial District/South Beach","3","CENTRAL","2024/01/29 02:30:06 PM","2025/10/10 08:05:31 AM"
"POE","271","0173398","Active","P23","Place of Entertainment","New Delhi Restaurant","160 ELLIS ST","San Francisco","CA","POINT (-122.4090135 37.785465)","Tenderloin","5","TENDERLOIN","2024/01/29 02:30:06 PM","2025/10/10 08:05:31 AM"
"BP","275","0915912","Active",,,"North Star Café","1560 POWELL ST","San Francisco","CA","POINT (-122.4104175 37.799217)","Chinatown","3","CENTRAL","2024/01/29 02:30:06 PM","2025/10/10 08:05:31 AM"
"POE","277","0381286","Active","P23","Place of Entertainment","SOMArts Cultural Center","934 BRANNAN ST","San Francisco","CA","POINT (-122.406588 37.771182)","South of Market","6","SOUTHERN","2024/01/29 02:30:06 PM","2025/10/10 08:05:31 AM"
"POE","291","0909965","Active","P23","Place of Entertainment","University Club of S.F.","800 POWELL ST","San Francisco","CA","POINT (-122.409027 37.79235)","Chinatown","3","CENTRAL","2024/01/29 02:30:06 PM","2025/10/10 08:05:31 AM"
"POE, EHP","309","0142704","Active","P23","Place of Entertainment","Millennium / Larry Flynt's Hustler Club","1031 KEARNY ST","San Francisco","CA","POINT (-122.4057465 37.797588)","North Beach","3","CENTRAL","2024/01/29 02:30:06 PM","2025/10/10 08:05:31 AM"
"POE","310","0310896","Active","P23","Place of Entertainment","21st Amendment Brewery Café, LLC","563 2ND ST","San Francisco","CA","POINT (-122.392476 37.78254)","Financial District/South Beach","6","SOUTHERN","2024/01/29 02:30:06 PM","2025/10/10 08:05:31 AM"
"BP, MAD","311",,"Active",,,"Finnegan's Wake","937 COLE ST","San Francisco","CA","POINT (-122.450166 37.765305)","Haight Ashbury","8","PARK","2024/01/29 02:30:06 PM","2025/10/10 08:05:31 AM"
"EHP","312","0475548","Active",,,"Pinecrest Restaurant","401 GEARY ST","San Francisco","CA","POINT (-122.409993149 37.787115624)","Tenderloin","3","CENTRAL","2024/01/29 02:30:06 PM","2025/10/10 08:05:31 AM"
"BP","324","0946630","Active",,,"Kezar Pub","770 STANYAN ST","San Francisco","CA","POINT (-122.4529155 37.767888)","Haight Ashbury","8","PARK","2025/02/03 01:47:14 PM","2025/10/10 08:05:31 AM"
"POE","329","0201616","Active","P23","Place of Entertainment","THE RITZ-CARLTON SF","600 STOCKTON ST","San Francisco","CA","POINT (-122.407299 37.791801)","Financial District/South Beach","3","CENTRAL","2024/01/29 02:30:06 PM","2025/10/10 08:05:31 AM"
"POE","334","0308705","Active","P23","Place of Entertainment","West Bay Conference Center","1290 FILLMORE ST","San Francisco","CA","POINT (-122.4318555 37.78128)","Western Addition","5","NORTHERN","2024/01/29 02:30:06 PM","2025/10/10 08:05:31 AM"
"MAD, BP","343","0372663","Active",,,"Fizzee's Bar","3954 GEARY BLVD","San Francisco","CA","POINT (-122.461664564 37.781232662)","Inner Richmond","1","RICHMOND","2024/01/29 02:30:06 PM","2025/10/10 08:05:31 AM"
"POE","347","0402628","Active","P23","Place of Entertainment","Dolores Park Café","501 DOLORES ST","San Francisco","CA","POINT (-122.425722 37.761327)","Mission","8","MISSION","2024/01/29 02:30:06 PM","2025/10/10 08:05:31 AM"
"BP","348","0914365","Active",,,"International Cocktail Lounge","1000 COLUMBUS AVE","San Francisco","CA","POINT (-122.41512 37.803906)","North Beach","3","CENTRAL","2024/01/29 02:30:06 PM","2025/10/10 08:05:31 AM"
"POE","350","0181031","Active","P23","Place of Entertainment","The Great American Music Hall","859 OFARRELL ST","San Francisco","CA","POINT (-122.4188325 37.784799)","Tenderloin","5","NORTHERN","2024/01/29 02:30:06 PM","2025/10/10 08:05:31 AM"
"BP","374","0922760","Active",,,"Miraloma Club","749 PORTOLA DR","San Francisco","CA","POINT (-122.453747004 37.744256644)","West of Twin Peaks","7","INGLESIDE","2024/01/29 02:30:06 PM","2025/10/10 08:05:31 AM"
"POE","377","0425504","Active","P23","Place of Entertainment","Yerba Buena Center for the Arts","701 MISSION ST","San Francisco","CA","POINT (-122.402052 37.786005)","Financial District/South Beach","6","SOUTHERN","2024/01/29 02:30:06 PM","2025/10/10 08:05:31 AM"
"POE","378","0425504","Active","P23","Place of Entertainment","Yerba Buena Center for the Arts","700 HOWARD ST","San Francisco","CA","POINT (-122.400586072 37.784988442)","Financial District/South Beach","6","SOUTHERN","2024/01/29 02:30:06 PM","2025/10/10 08:05:31 AM"
"POE","383","0325324","Active","P23","Place of Entertainment","Edinburgh Castle","950 GEARY ST","San Francisco","CA","POINT (-122.418946874 37.786025321)","Tenderloin","3","NORTHERN","2024/01/29 02:30:06 PM","2025/10/10 08:05:31 AM"
"POE","386","0377133","Active","P23","Place of Entertainment","Russian Center of San Francisco","2450 SUTTER ST","San Francisco","CA","POINT (-122.4409275 37.785411)","Pacific Heights","2","RICHMOND","2024/07/02 03:02:33 PM","2025/10/10 08:05:31 AM"
"EHP","387","0316515","Active",,,"Korean Village Restaurant","4611 GEARY BLVD","San Francisco","CA","POINT (-122.468747044 37.780728009)","Inner Richmond","1","RICHMOND","2024/01/29 02:30:06 PM","2025/10/10 08:05:31 AM"
"POE, MAD, BP","390","1133166","Active","P23","Place of Entertainment","Savoy Tivoli","1434 GRANT AVE","San Francisco","CA","POINT (-122.4072135 37.800306)","North Beach","3","CENTRAL","2024/01/29 02:30:06 PM","2025/10/10 08:05:31 AM"
"EHP","398","0480540","Active",,,"Allstars Café","1500 MARKET ST","San Francisco","CA","POINT (-122.419548 37.77525)","Hayes Valley","6","NORTHERN","2024/01/29 02:30:06 PM","2025/10/10 08:05:31 AM"
"MAD, BP","412","0391548","Active",,,"Cinnabar","397 ELLIS ST","San Francisco","CA","POINT (-122.412645 37.784781)","Tenderloin","5","TENDERLOIN","2024/01/29 02:30:06 PM","2025/10/10 08:05:31 AM"
"POE","418","0389178","Active","P23","Place of Entertainment","Jewish Community Center of S.F.","3200 CALIFORNIA ST","San Francisco","CA","POINT (-122.447232 37.787373)","Presidio Heights","2","RICHMOND","2024/01/29 02:30:06 PM","2025/10/10 08:05:31 AM"
"MAD","421","0363228","Active",,,"El Castillito Taqueria","2092 MISSION ST","San Francisco","CA","POINT (-122.419818 37.763631)","Mission","9","MISSION","2024/01/29 02:30:06 PM","2025/10/10 08:05:31 AM"
"BP, EHP","423","0309244","Active",,,"El Farolito Taqueria","2777 MISSION ST","San Francisco","CA","POINT (-122.4181395 37.75266)","Mission","9","MISSION","2024/01/29 02:30:06 PM","2025/10/10 08:05:31 AM"
"EHP","442","0160340","Active",,,"Los Panchos Restaurant","3206 MISSION ST","San Francisco","CA","POINT (-122.4203265 37.745478)","Bernal Heights","9","INGLESIDE","2024/01/29 02:30:06 PM","2025/10/10 08:05:31 AM"
"MAD, BP","453","0916639","Active",,,"SF Mix","4086 18TH ST","San Francisco","CA","POINT (-122.4345015 37.761147)","Castro/Upper Market","8","MISSION","2024/01/29 02:30:06 PM","2025/10/10 08:05:31 AM"
"POE","456","0309757","Active","P23","Place of Entertainment","Al-Masri Egyptian Restaurant","4031 BALBOA ST","San Francisco","CA","POINT (-122.502159 37.77525)","Outer Richmond","1","RICHMOND","2024/01/29 02:30:06 PM","2025/10/10 08:05:31 AM"
"POE","462","0475917","Active","P23","Place of Entertainment","Southeast Community Facility","1800 OAKDALE AVE","San Francisco","CA","POINT (-122.394141 37.737054)","Bayview Hunters Point","10","BAYVIEW","2024/01/29 02:30:06 PM","2025/10/10 08:05:31 AM"
"POE","464","0932947","Active","P23","Place of Entertainment","The Saloon","1232 GRANT AVE","San Francisco","CA","POINT (-122.407002 37.798569)","North Beach","3","CENTRAL","2024/01/29 02:30:06 PM","2025/10/10 08:05:31 AM"
"POE","470",,"Active","P23","Place of Entertainment","Abbey Tavern","4100 GEARY BLVD","San Francisco","CA","POINT (-122.46329721 37.781147555)","Inner Richmond","1","RICHMOND","2024/01/29 02:30:06 PM","2025/10/10 08:05:31 AM"
"POE","471","0376022","Active","P23","Place of Entertainment","SF Conservatory of Music","50 OAK ST","San Francisco","CA","POINT (-122.420268 37.775484)","Hayes Valley","6","NORTHERN","2024/01/29 02:30:06 PM","2025/10/10 08:05:31 AM"
"POE","472","0375394","Active","P23","Place of Entertainment","Pier 23 Café","23 PIER","San Francisco","CA","POINT (-122.399606976 37.803697017)","Financial District/South Beach","3","CENTRAL","2024/01/29 02:30:06 PM","2025/10/10 08:05:31 AM"
"POE, BP","473","0917609","Active","P23","Place of Entertainment","PLOUGH & THE STARS, INC.","116 CLEMENT ST","San Francisco","CA","POINT (-122.4605295 37.783377)","Inner Richmond","1","RICHMOND","2024/01/29 02:30:06 PM","2025/10/10 08:05:31 AM"
"POE","485","0937250","Active","P23","Place of Entertainment","Pachamama","1630 POWELL ST","San Francisco","CA","POINT (-122.410503 37.799766)","Chinatown","3","CENTRAL","2024/01/29 02:30:06 PM","2025/10/10 08:05:31 AM"
"POE","486","0348985","Active","P23","Place of Entertainment","White Rabbit","3138 FILLMORE ST","San Francisco","CA","POINT (-122.4355635 37.798704)","Marina","2","NORTHERN","2024/01/29 02:30:06 PM","2025/10/10 08:05:31 AM"
"POE","489","0475903","Active","P23","Place of Entertainment","St. George/Pathfinders, Inc.","6231 GEARY BLVD","San Francisco","CA","POINT (-122.486176455 37.779937883)","Outer Richmond","1","RICHMOND","2024/01/29 02:30:06 PM","2025/10/10 08:05:31 AM"
"POE","496","0425070","Active","P23","Place of Entertainment","St. Mary's Cathedral","1111 GOUGH ST","San Francisco","CA","POINT (-122.425425 37.784466)","Western Addition","2","NORTHERN","2024/01/29 02:30:06 PM","2025/10/10 08:05:31 AM"
"MAD","503","0308188","Active",,,"Powerhouse","1347 FOLSOM ST","San Francisco","CA","POINT (-122.412105 37.773045)","South of Market","6","SOUTHERN","2024/01/29 02:30:06 PM","2025/10/10 08:05:31 AM"
"POE","520","1083234","Active","P23","Place of Entertainment","San Francisco Design Center","2 HENRY ADAMS ST","San Francisco","CA","POINT (-122.404048956 37.769686377)","Mission Bay","6","SOUTHERN","2024/01/29 02:30:06 PM","2025/10/10 08:05:31 AM"
"POE, BP","534","0449393","Active","P23","Place of Entertainment","Makeout Room","3225 22ND ST","San Francisco","CA","POINT (-122.4195345 37.755198)","Mission","9","MISSION","2024/01/29 02:30:06 PM","2025/10/10 08:05:31 AM"
"POE","535","0391847","Active","P23","Place of Entertainment","The Women's Building/Lesbian & Gay Insurrection","3543 18TH ST","San Francisco","CA","POINT (-122.4226305 37.761426)","Mission","9","MISSION","2024/01/29 02:30:06 PM","2025/10/10 08:05:31 AM"
"EHP","536","0939314","Active",,,"Napoli Pizza","1045 POLK ST","San Francisco","CA","POINT (-122.420097 37.786518)","Tenderloin","3","NORTHERN","2024/01/29 02:30:06 PM","2025/10/10 08:05:31 AM"
"POE","538","429331","Active","P23","Place of Entertainment","The Regency","1290 SUTTER ST","San Francisco","CA","POINT (-122.4213975 37.787859)","Nob Hill","3","NORTHERN","2024/01/29 02:30:06 PM","2025/10/10 08:05:31 AM"
"MAD","548","0074516","Active",,,"Geary Club","768 GEARY ST","San Francisco","CA","POINT (-122.415920271 37.78640946)","Tenderloin","3","CENTRAL","2024/01/29 02:30:06 PM","2025/10/10 08:05:31 AM"
"POE","560","0310875","Active","P23","Place of Entertainment","Merchants Exchange 15th Fl.","465 CALIFORNIA ST","San Francisco","CA","POINT (-122.402142 37.792557)","Financial District/South Beach","3","CENTRAL","2024/01/29 02:30:06 PM","2025/10/10 08:05:31 AM"
"POE, EHP","582","1063162","Active","P23","Place of Entertainment","Hilton San Francisco","333 OFARRELL ST","San Francisco","CA","POINT (-122.4104265 37.785645)","Tenderloin","5","TENDERLOIN","2024/01/29 02:30:06 PM","2025/10/10 08:05:31 AM"
"POE","587","0322910","Active","P23","Place of Entertainment","Jazz Room","5267 3RD ST","San Francisco","CA","POINT (-122.392242 37.729638)","Bayview Hunters Point","10","BAYVIEW","2024/01/29 02:30:06 PM","2025/10/10 08:05:31 AM"
"POE","594","0090123","Active","P23","Place of Entertainment","CLUB PUERTORRIQUENO DE S.F CA","3249 MISSION ST","San Francisco","CA","POINT (-122.420034 37.744713)","Bernal Heights","9","INGLESIDE","2024/01/29 02:30:06 PM","2025/10/10 08:05:31 AM"
"POE","608","0447323","Active","P23","Place of Entertainment","Four Season Hotel San Francisco","757 MARKET ST","San Francisco","CA","POINT (-122.404491 37.786599)","Financial District/South Beach","6","SOUTHERN","2024/01/29 02:30:06 PM","2025/10/10 08:05:31 AM"
"MAD, BP","611","0950353","Active",,,"Cable Car Restaurant/Kennedy's Irish Pub","1040 COLUMBUS AVE","San Francisco","CA","POINT (-122.4152775 37.804176)","North Beach","3","CENTRAL","2024/01/29 02:30:06 PM","2025/10/10 08:05:31 AM"
"MAD, BP","618","1012369","Active",,,"King Kong Bida","745 OFARRELL ST","San Francisco","CA","POINT (-122.4169785 37.785195)","Tenderloin","5","TENDERLOIN","2024/01/29 02:30:06 PM","2025/10/10 08:05:31 AM"
"POE","623","0944781","Active","P23","Place of Entertainment","The Beach Chalet Brewery & Restaurant","1000 GREAT HWY","San Francisco","CA","POINT (-122.510648586 37.76911023)","Golden Gate Park","4","RICHMOND","2024/01/29 02:30:06 PM","2025/10/10 08:05:31 AM"
"POE","629","0952871","Active","P23","Place of Entertainment","Broadway Studios","435 BROADWAY","San Francisco","CA","POINT (-122.40444051 37.798125009)","North Beach","3","CENTRAL","2024/01/29 02:30:06 PM","2025/10/10 08:05:31 AM"
"POE","633","0316084","Active","P23","Place of Entertainment","Foreign Cinema and Laszlo","2534 MISSION ST","San Francisco","CA","POINT (-122.4190395 37.756485)","Mission","9","MISSION","2024/01/29 02:30:06 PM","2025/10/10 08:05:31 AM"
"POE, BP","639","0916840","Active","P23","Place of Entertainment","HOLIDAY INN GOLDEN GATEWAY","1500 VAN NESS AVE","San Francisco","CA","POINT (-122.42169 37.789839)","Nob Hill","3","NORTHERN","2024/01/29 02:30:06 PM","2025/10/10 08:05:31 AM"
"BP","647","0204116","Active",,,"Horseshoe Tavern","2024 CHESTNUT ST","San Francisco","CA","POINT (-122.4369675 37.800927)","Marina","2","NORTHERN","2024/05/15 11:12:47 AM","2025/10/10 08:05:31 AM"
"POE, EHP","648","0159060","Active","P23","Place of Entertainment","HORNBLOWER YACHTS, INC.","3 PIER","San Francisco","CA","POINT (-122.397298013 37.794947986)","Financial District/South Beach","3","CENTRAL","2024/01/29 02:30:06 PM","2025/10/10 08:05:31 AM"
"EHP","651","0157789","Active",,,"Mel's Drive In","2165 LOMBARD ST","San Francisco","CA","POINT (-122.437107 37.799451)","Marina","2","NORTHERN","2024/01/29 02:30:06 PM","2025/10/10 08:05:31 AM"
"EHP","652","0157789","Active",,,"Mel's Drive In","1050 VAN NESS AVE","San Francisco","CA","POINT (-122.4208755 37.785501)","Tenderloin","5","NORTHERN","2024/01/29 02:30:06 PM","2025/10/10 08:05:31 AM"
"EHP","653","0157789","Active",,,"Mel's Drive In","833 MISSION ST","San Francisco","CA","POINT (-122.4050805 37.783377)","South of Market","6","SOUTHERN","2024/01/29 02:30:06 PM","2025/10/10 08:05:31 AM"
"EHP","654","0157789","Active",,,"Mel's Drive In","3355 GEARY BLVD","San Francisco","CA","POINT (-122.454767355 37.781425875)","Lone Mountain/USF","2","RICHMOND","2024/01/29 02:30:06 PM","2025/10/10 08:05:31 AM"
"POE","655","0398979","Active","P23","Place of Entertainment","Westin St. Francis Hotel-""Master Ballroom""","335 POWELL ST","San Francisco","CA","POINT (-122.4084645 37.787868)","Tenderloin","3","CENTRAL","2024/01/29 02:30:06 PM","2025/10/10 08:05:31 AM"
"POE","666","1081745","Active","P23","Place of Entertainment","Rick and Roxy's","2125 LOMBARD ST","San Francisco","CA","POINT (-122.4364815 37.799532)","Marina","2","NORTHERN","2024/07/15 10:24:56 AM","2025/10/10 08:05:31 AM"
"POE, EHP","671","0343971","Active","P23","Place of Entertainment","DNA Lounge","375 11TH ST","San Francisco","CA","POINT (-122.412699 37.77102)","South of Market","6","SOUTHERN","2024/01/29 02:30:06 PM","2025/10/10 08:05:31 AM"
"MAD","672","0182040","Active",,,"Musee Mechanique",,"San Francisco","CA",,,,,"2024/01/29 02:30:06 PM","2025/10/10 08:05:31 AM"
"BP, EHP","676","0161423","Active",,,"Family Billiards","2807 GEARY BLVD","San Francisco","CA","POINT (-122.449218033 37.782132904)","Lone Mountain/USF","2","RICHMOND","2024/01/29 02:30:06 PM","2025/10/10 08:05:31 AM"
"POE, BP","681","0328038","Active","P23","Place of Entertainment","Club Waziema","543 DIVISADERO ST","San Francisco","CA","POINT (-122.4380655 37.774629)","Hayes Valley","5","PARK","2024/01/29 02:30:06 PM","2025/10/10 08:05:31 AM"
"POE","682","0393167","Active","P23","Place of Entertainment","The Independent","628 DIVISADERO ST","San Francisco","CA","POINT (-122.4375255 37.775538)","Hayes Valley","5","PARK","2024/01/29 02:30:06 PM","2025/10/10 08:05:31 AM"
"POE, EHP","687","0375322","Active","P23","Place of Entertainment","Gold Club","650 HOWARD ST","San Francisco","CA","POINT (-122.3997075 37.785951)","Financial District/South Beach","6","SOUTHERN","2024/01/29 02:30:06 PM","2025/10/10 08:05:31 AM"
"MAD, BP","695","0369712","Active",,,"Bender's Bar & Grill","806 SOUTH VAN NESS AVE","San Francisco","CA","POINT (-122.4172935 37.760202)","Mission","9","MISSION","2024/01/29 02:30:06 PM","2025/10/10 08:05:31 AM"
"MAD, BP","704","0463954","Active",,,"Tip Top Club","3776 MISSION ST","San Francisco","CA","POINT (-122.4246735 37.736415)","Bernal Heights","8","INGLESIDE","2024/01/29 02:30:06 PM","2025/10/10 08:05:31 AM"
"POE","706","0358273","Active","P23","Place of Entertainment","Swig","561 GEARY ST","San Francisco","CA","POINT (-122.412602926 37.786781809)","Tenderloin","5","CENTRAL","2024/01/29 02:30:06 PM","2025/10/10 08:05:31 AM"
"EHP","712","0368985","Active",,,"La Terra","511 HARRISON ST","San Francisco","CA","POINT (-122.3930205 37.785501)","Financial District/South Beach","6","SOUTHERN","2024/01/29 02:30:06 PM","2025/10/10 08:05:31 AM"
"MAD","716","0377308","Active",,,"The Page","298 DIVISADERO ST","San Francisco","CA","POINT (-122.4369045 37.772127)","Haight Ashbury","5","PARK","2025/03/05 12:53:43 PM","2025/10/10 08:05:31 AM"
"EHP","727","0367892","Active",,,"Barbarossa","714 MONTGOMERY ST","San Francisco","CA","POINT (-122.4030825 37.795905)","Chinatown","3","CENTRAL","2024/01/29 02:30:06 PM","2025/10/10 08:05:31 AM"
"POE","728","0379652","Active","P23","Place of Entertainment","Cigar Bar & Restaurant","850 MONTGOMERY ST","San Francisco","CA","POINT (-122.403393 37.797165)","Chinatown","3","CENTRAL","2024/01/29 02:30:06 PM","2025/10/10 08:05:31 AM"
"POE","730","0387631","Active","P23","Place of Entertainment","Sens Restaurant","4 EMBARCADERO CTR","San Francisco","CA","POINT (-122.396236026 37.795534007)","Financial District/South Beach","3","CENTRAL","2024/01/29 02:30:06 PM","2025/10/10 08:05:31 AM"
"EHP","732","429331","Active",,,"The Regency","1290 SUTTER ST","San Francisco","CA","POINT (-122.4213975 37.787859)","Nob Hill","3","NORTHERN","2024/01/29 02:30:06 PM","2025/10/10 08:05:31 AM"
"BP","738","0482870","Active",,,"Lucitas Bar","5163 MISSION ST","San Francisco","CA","POINT (-122.441049 37.715958)","Excelsior","11","INGLESIDE","2024/01/29 02:30:06 PM","2025/10/10 08:05:31 AM"
"POE, BP","740","0382616","Active","P23","Place of Entertainment","Lucita's Nightclub","3247 MISSION ST","San Francisco","CA","POINT (-122.420034 37.744713)","Bernal Heights","9","INGLESIDE","2024/01/29 02:30:06 PM","2025/10/10 08:05:31 AM"
"POE, EHP","744","0315323","Active","P23","Place of Entertainment","The Grand","520 4TH ST","San Francisco","CA","POINT (-122.3978895 37.779093)","South of Market","6","SOUTHERN","2024/01/29 02:30:06 PM","2025/10/10 08:05:31 AM"
"POE","747","0431563","Active","P23","Place of Entertainment","Raven Bar","1151 FOLSOM ST","San Francisco","CA","POINT (-122.4087795 37.775682)","South of Market","6","SOUTHERN","2024/01/29 02:30:06 PM","2025/10/10 08:05:31 AM"
"POE","757","0331691","Active","P23","Place of Entertainment","Far East Café","631 GRANT AVE","San Francisco","CA","POINT (-122.406381 37.792998)","Chinatown","3","CENTRAL","2024/01/29 02:30:06 PM","2025/10/10 08:05:31 AM"
"POE, EHP","761","387830","Active","P23","Place of Entertainment","Cat Club","1190 FOLSOM ST","San Francisco","CA","POINT (-122.410062 37.775475)","South of Market","6","SOUTHERN","2024/01/29 02:30:06 PM","2025/10/10 08:05:31 AM"
"POE","768","1090789","Active","P23","Place of Entertainment","The Knockout","3223 MISSION ST","San Francisco","CA","POINT (-122.4198 37.745091)","Bernal Heights","9","INGLESIDE","2024/01/29 02:30:06 PM","2025/10/10 08:05:31 AM"
"POE","771","0374488","Active","P23","Place of Entertainment","Hotel Utah Saloon","500 4TH ST","San Francisco","CA","POINT (-122.398146 37.7793)","South of Market","6","SOUTHERN","2024/01/29 02:30:06 PM","2025/10/10 08:05:31 AM"
"POE, MAD, BP","790","0936871","Active","P23","Place of Entertainment","Daddy's Bar or The 440","440 CASTRO ST","San Francisco","CA","POINT (-122.4354195 37.761831)","Castro/Upper Market","8","MISSION","2024/01/29 02:30:06 PM","2025/10/10 08:05:31 AM"
"POE, MAD, BP","796","0108287","Active","P23","Place of Entertainment","Moby Dick Bar","4049 18TH ST","San Francisco","CA","POINT (-122.4337455 37.760778)","Castro/Upper Market","8","MISSION","2024/01/29 02:30:06 PM","2025/10/10 08:05:31 AM"
"POE","805","1010655","Active","P23","Place of Entertainment","Cobb's Comedy Club","915 COLUMBUS AVE","San Francisco","CA","POINT (-122.414346 37.802898)","Russian Hill","3","CENTRAL","2024/01/29 02:30:06 PM","2025/10/10 08:05:31 AM"
"POE","813",,"Active","P23","Place of Entertainment","Toad Hall","4146 18TH ST","San Francisco","CA","POINT (-122.4359145 37.76103)","Castro/Upper Market","8","MISSION","2024/01/29 02:30:06 PM","2025/10/10 08:05:31 AM"
"POE","815","0916639","Active","P23","Place of Entertainment","SF Mix","4086 18TH ST","San Francisco","CA","POINT (-122.4345015 37.761147)","Castro/Upper Market","8","MISSION","2024/01/29 02:30:06 PM","2025/10/10 08:05:31 AM"
"POE, EHP","820","0397546","Active","P23","Place of Entertainment","Temple Nightclub","540 HOWARD ST","San Francisco","CA","POINT (-122.397116763 37.78773412)","Financial District/South Beach","6","SOUTHERN","2024/01/29 02:30:06 PM","2025/10/10 08:05:31 AM"
"POE","822","0381673","Active","P23","Place of Entertainment","Club Malibu","3395 MISSION ST","San Francisco","CA","POINT (-122.4217575 37.742283)","Bernal Heights","9","INGLESIDE","2024/01/29 02:30:06 PM","2025/10/10 08:05:31 AM"
"POE","835","0395833","Active","P23","Place of Entertainment","CLUB BOTTOMS UP","4704 MISSION ST","San Francisco","CA","POINT (-122.4364545 37.723041)","Outer Mission","11","INGLESIDE","2025/09/22 03:31:10 PM","2025/10/10 08:05:31 AM"
"POE","837","0201542","Active","P23","Place of Entertainment","The Bamboo Hut","479 BROADWAY","San Francisco","CA","POINT (-122.405149608 37.798034671)","North Beach","3","CENTRAL","2024/01/29 02:30:06 PM","2025/10/10 08:05:31 AM"
"POE","849","0397645","Active","P23","Place of Entertainment","Sheba Piano Lounge","1419 FILLMORE ST","San Francisco","CA","POINT (-122.4333315 37.782621)","Western Addition","5","NORTHERN","2024/01/29 02:30:06 PM","2025/10/10 08:05:31 AM"
"POE","850","0402009","Active","P23","Place of Entertainment","Maggie McGarry's","1353 GRANT AVE","San Francisco","CA","POINT (-122.407542 37.799397)","North Beach","3","CENTRAL","2024/01/29 02:30:06 PM","2025/10/10 08:05:31 AM"
"POE, BP","853","399795","Active","P23","Place of Entertainment","The Royale","800 POST ST","San Francisco","CA","POINT (-122.415282 37.787607)","Nob Hill","3","CENTRAL","2024/01/29 02:30:06 PM","2025/10/10 08:05:31 AM"
"POE","858","0404920","Active","P23","Place of Entertainment","Madarae","46 MINNA ST","San Francisco","CA","POINT (-122.398177643 37.788484601)","Financial District/South Beach","6","SOUTHERN","2024/01/29 02:30:06 PM","2025/10/10 08:05:31 AM"
"POE, EHP","860","0402193","Active","P23","Place of Entertainment","F8","1192 FOLSOM ST","San Francisco","CA","POINT (-122.409904759 37.775171166)","South of Market","6","SOUTHERN","2024/01/29 02:30:06 PM","2025/10/10 08:05:31 AM"
"POE","877","0440669","Active","P23","Place of Entertainment","Aquarium of the Bay","39 PIER","San Francisco","CA","POINT (-122.396222304 37.795040654)","Financial District/South Beach","3","CENTRAL","2024/01/29 02:30:06 PM","2025/10/10 08:05:31 AM"
"POE","884","0413316","Active","P23","Place of Entertainment","Thee Parkside","1600 17TH ST","San Francisco","CA","POINT (-122.3998965 37.76517)","Mission Bay","10","BAYVIEW","2024/01/29 02:30:06 PM","2025/10/10 08:05:31 AM"
"EHP","904","0404920","Active",,,"Madarae","46 MINNA ST","San Francisco","CA","POINT (-122.398177643 37.788484601)","Financial District/South Beach","6","SOUTHERN","2024/01/29 02:30:06 PM","2025/10/10 08:05:31 AM"
"POE","906","1040644","Active","P23","Place of Entertainment","Forest Hill Assoc. or Clubhouse","381 MAGELLAN AVE","San Francisco","CA","POINT (-122.4635985 37.744587)","West of Twin Peaks","7","TARAVAL","2025/09/26 01:50:33 PM","2025/10/10 08:05:31 AM"
"POE","918","0366545","Active","P23","Place of Entertainment","Elan Event Venue","839 HOWARD ST","San Francisco","CA","POINT (-122.403366 37.782288)","South of Market","6","SOUTHERN","2024/01/29 02:30:06 PM","2025/10/10 08:05:31 AM"
"POE, BP","920","0396483","Active","P23","Place of Entertainment","EL RIO YOUR DIVE","3158 MISSION ST","San Francisco","CA","POINT (-122.4194805 37.746819)","Bernal Heights","9","INGLESIDE","2025/03/28 03:06:35 PM","2025/10/10 08:05:31 AM"
"POE","922","0421183","Active","P23","Place of Entertainment","The Lookout","3600 16TH ST","San Francisco","CA","POINT (-122.433417 37.764396)","Castro/Upper Market","8","PARK","2024/01/29 02:30:06 PM","2025/10/10 08:05:31 AM"
"POE","923","0417332","Active","P23","Place of Entertainment","TAJ Campton Place","340 STOCKTON ST","San Francisco","CA","POINT (-122.4065835 37.789164)","Financial District/South Beach","3","CENTRAL","2024/01/29 02:30:06 PM","2025/10/10 08:05:31 AM"
"MAD, BP","928","0301719","Active",,,"Hole in the Wall Saloon","1369 FOLSOM ST","San Francisco","CA","POINT (-122.412294 37.772901)","South of Market","6","SOUTHERN","2024/01/29 02:30:06 PM","2025/10/10 08:05:31 AM"
"POE","941","0423658","Active","P23","Place of Entertainment","Ginger's/Pagan Idol/Rickhouse","246 KEARNY ST","San Francisco","CA","POINT (-122.4038205 37.790523)","Financial District/South Beach","3","CENTRAL","2024/01/29 02:30:06 PM","2025/10/10 08:05:31 AM"
"BP","942","0461317","Active",,,"Murio's","1811 HAIGHT ST","San Francisco","CA","POINT (-122.452218 37.769229)","Haight Ashbury","5","PARK","2024/01/29 02:30:06 PM","2025/10/10 08:05:31 AM"
"POE","948","1082659","Active","P23","Place of Entertainment","Marrakech Restaurant","419 OFARRELL ST","San Francisco","CA","POINT (-122.41167926 37.78593291)","Tenderloin","5","TENDERLOIN","2024/01/29 02:30:06 PM","2025/10/10 08:05:31 AM"
"POE, EHP","954","0429331","Active","P23","Place of Entertainment","The Warfield Theatre","982 MARKET ST","San Francisco","CA","POINT (-122.4100845 37.782693)","Tenderloin","5","TENDERLOIN","2024/01/29 02:30:06 PM","2025/10/10 08:05:31 AM"
"POE","956","0433520","Active","P23","Place of Entertainment","Madrone Art Bar","500 DIVISADERO ST","San Francisco","CA","POINT (-122.437377 37.774224)","Hayes Valley","5","PARK","2024/01/29 02:30:06 PM","2025/10/10 08:05:31 AM"
"POE","969","0435417","Active","P23","Place of Entertainment","Neck of the Woods","406 CLEMENT ST","San Francisco","CA","POINT (-122.463531868 37.783010015)","Inner Richmond","1","RICHMOND","2024/01/29 02:30:06 PM","2025/10/10 08:05:31 AM"
"POE","979","0422158","Active","P23","Place of Entertainment","China House Jumbo Seafood","2237 POWELL ST","San Francisco","CA","POINT (-122.411929354 37.805481745)","North Beach","3","CENTRAL","2024/01/29 02:30:06 PM","2025/10/10 08:05:31 AM"
"POE","985","0444623","Active","P23","Place of Entertainment","Volar Music","626 CLEMENT ST","San Francisco","CA","POINT (-122.465845791 37.782912762)","Inner Richmond","1","RICHMOND","2024/01/29 02:30:06 PM","2025/10/10 08:05:31 AM"
"POE","988","0441175","Active","P23","Place of Entertainment","Mayes","1233 POLK ST","San Francisco","CA","POINT (-122.420547 37.788273)","Nob Hill","3","NORTHERN","2024/01/29 02:30:06 PM","2025/10/10 08:05:31 AM"
"POE, EHP","994","443715","Active","P23","Place of Entertainment","Novela","662 MISSION ST","San Francisco","CA","POINT (-122.401174399 37.78697591)","Financial District/South Beach","6","SOUTHERN","2024/01/29 02:30:06 PM","2025/10/10 08:05:31 AM"
"POE","999","0334661","Active","P23","Place of Entertainment","Union Square Sports Bar","115 MASON ST","San Francisco","CA","POINT (-122.40939671 37.784549693)","Tenderloin","5","TENDERLOIN","2024/01/29 02:30:06 PM","2025/10/10 08:05:31 AM"
